Name,Address,City,Phone,Website,Email,Google Maps URL
Amministratore di condominio Nuccia Palermo,"Via A. Di Giovanni, 15, 92100 Agrigento AG, Italy",Agrigento,+39 320 314 7988,,,"https://www.google.com/maps/place/Amministratore+di+condominio+Nuccia+Palermo/@37.3292563,13.5200751,13z/data=!4m10!1m2!2m1!1sAmministratore+di+condominio+Agrigento!3m6!1s0x1310830e5660ce73:0x43f9de6a747c06ed!8m2!3d37.3292563!4d13.5921729!15sCiZBbW1pbmlzdHJhdG9yZSBkaSBjb25kb21pbmlvIEFncmlnZW50b1ooIiZhbW1pbmlzdHJhdG9yZSBkaSBjb25kb21pbmlvIGFncmlnZW50b5IBFnByb3BlcnR5X2FkbWluaXN0cmF0b3KaASNDaFpEU1VoTk1HOW5TMFZKUTBGblNVUm9lRnBsVVV4UkVBRaoBhwEKCS9tLzAyMHlzNQoIL20vMGM4bGIQASogIhxhbW1pbmlzdHJhdG9yZSBkaSBjb25kb21pbmlvKAcyIBABIhzzus0FwI-Z8hIW6sk7l4inuXhmSPMSExWbGs8vMioQAiImYW1taW5pc3RyYXRvcmUgZGkgY29uZG9taW5pbyBhZ3JpZ2VudG_gAQD6AQQIABAP!16s%2Fg%2F11mvs23cww?hl=en&entry=ttu&g_ep=EgoyMDI1MDgxMy4wIKXMDSoASAFQAw%3D%3D"
Amministratore di condominio Nuccia Palermo,"Viale della Vittoria, 263/B, 92100 Agrigento AG, Italy",Agrigento,+39 380 637 7269,http://www.studionicolicchia.com/,,"https://www.google.com/maps/place/Studio+Amministrazione+condominiale+di+Nicolicchia+Vincenzo/@37.3292563,13.5200751,13z/data=!4m10!1m2!2m1!1sAmministratore+di+condominio+Agrigento!3m6!1s0x1310824d030743f1:0x38d4fb3bfc91f089!8m2!3d37.306057!4d13.5934291!15sCiZBbW1pbmlzdHJhdG9yZSBkaSBjb25kb21pbmlvIEFncmlnZW50b1ooIiZhbW1pbmlzdHJhdG9yZSBkaSBjb25kb21pbmlvIGFncmlnZW50b5IBFnByb3BlcnR5X2FkbWluaXN0cmF0b3KaASRDaGREU1VoTk1HOW5TMFZKUTBGblNVUjBkelJ0Y1hCblJSQUKqAYcBCgkvbS8wMjB5czUKCC9tLzBjOGxiEAEqICIcYW1taW5pc3RyYXRvcmUgZGkgY29uZG9taW5pbygHMiAQASIc87rNBcCPmfISFurJO5eIp7l4ZkjzEhMVmxrPLzIqEAIiJmFtbWluaXN0cmF0b3JlIGRpIGNvbmRvbWluaW8gYWdyaWdlbnRv4AEA-gEECHsQQA!16s%2Fg%2F11f3zmw6zg?hl=en&entry=ttu&g_ep=EgoyMDI1MDgxMy4wIKXMDSoASAFQAw%3D%3D"
Studio Amministrazione condominiale di Nicolicchia Vincenzo,"Viale della Vittoria, 263/B, 92100 Agrigento AG, Italy",Agrigento,+39 380 637 7269,http://www.studionicolicchia.com/,,"https://www.google.com/maps/place/Amministratori+condominio+Acap+Agrigento/@37.3292563,13.5200751,13z/data=!4m10!1m2!2m1!1sAmministratore+di+condominio+Agrigento!3m6!1s0x1310824ddc0010cb:0xb3015de6b4856bd1!8m2!3d37.3067132!4d13.5846061!15sCiZBbW1pbmlzdHJhdG9yZSBkaSBjb25kb21pbmlvIEFncmlnZW50b5IBFnByb3BlcnR5X2FkbWluaXN0cmF0b3KqAYcBCgkvbS8wMjB5czUKCC9tLzBjOGxiEAEqICIcYW1taW5pc3RyYXRvcmUgZGkgY29uZG9taW5pbygHMiAQASIc87rNBcCPmfISFurJO5eIp7l4ZkjzEhMVmxrPLzIqEAIiJmFtbWluaXN0cmF0b3JlIGRpIGNvbmRvbWluaW8gYWdyaWdlbnRv4AEA!16s%2Fg%2F11g8_bpc46?hl=en&entry=ttu&g_ep=EgoyMDI1MDgxMy4wIKXMDSoASAFQAw%3D%3D"
Amministratori condominio Acap Agrigento,"Via Alessandro Manzoni, 167, 92100 Agrigento AG, Italy",Agrigento,+39 338 638 0480,http://www.amministratoriacap.com/,,"https://www.google.com/maps/place/Amministrazione+Condomini+Garufo/@37.3292563,13.5200751,13z/data=!4m10!1m2!2m1!1sAmministratore+di+condominio+Agrigento!3m6!1s0x1310831f1d33ba55:0x6adb199eca7d38d4!8m2!3d37.3358383!4d13.5937137!15sCiZBbW1pbmlzdHJhdG9yZSBkaSBjb25kb21pbmlvIEFncmlnZW50b5IBFnByb3BlcnR5X2FkbWluaXN0cmF0b3KqAYcBCgkvbS8wMjB5czUKCC9tLzBjOGxiEAEqICIcYW1taW5pc3RyYXRvcmUgZGkgY29uZG9taW5pbygHMiAQASIc87rNBcCPmfISFurJO5eIp7l4ZkjzEhMVmxrPLzIqEAIiJmFtbWluaXN0cmF0b3JlIGRpIGNvbmRvbWluaW8gYWdyaWdlbnRv4AEA!16s%2Fg%2F1tm929_p?hl=en&entry=ttu&g_ep=EgoyMDI1MDgxMy4wIKXMDSoASAFQAw%3D%3D"
Amministrazione Condomini Garufo,"Piazza Vincenzo Savatteri Castelli, 25 - 26 - 27, 92100 Agrigento AG, Italy",Agrigento,+39 328 201 2136,https://www.garufo.it/,info@garufo.it; segreteria@garufo.it,"https://www.google.com/maps/place/Mantisi+Geom.+Alfonso+Studio+Amministrazione+Condominiale/@37.3292563,13.5200751,13z/data=!4m10!1m2!2m1!1sAmministratore+di+condominio+Agrigento!3m6!1s0x1310824cda3529bd:0xeca30fa36d227da6!8m2!3d37.3045564!4d13.5892345!15sCiZBbW1pbmlzdHJhdG9yZSBkaSBjb25kb21pbmlvIEFncmlnZW50b1ooIiZhbW1pbmlzdHJhdG9yZSBkaSBjb25kb21pbmlvIGFncmlnZW50b5IBFnByb3BlcnR5X2FkbWluaXN0cmF0b3KqAYcBCgkvbS8wMjB5czUKCC9tLzBjOGxiEAEqICIcYW1taW5pc3RyYXRvcmUgZGkgY29uZG9taW5pbygHMiAQASIc87rNBcCPmfISFurJO5eIp7l4ZkjzEhMVmxrPLzIqEAIiJmFtbWluaXN0cmF0b3JlIGRpIGNvbmRvbWluaW8gYWdyaWdlbnRv4AEA!16s%2Fg%2F11h08llj6?hl=en&entry=ttu&g_ep=EgoyMDI1MDgxMy4wIKXMDSoASAFQAw%3D%3D"
Mantisi Geom. Alfonso Studio Amministrazione Condominiale,"Via Esseneto, 97, 92100 Agrigento AG, Italy",Agrigento,+39 0922 402544,,,"https://www.google.com/maps/place/Geom.+Marco+Piraneo+Studio+di+amministrazione+e+consulenza+condominiale/@37.3292563,13.5200751,13z/data=!4m10!1m2!2m1!1sAmministratore+di+condominio+Agrigento!3m6!1s0x13108323437df371:0x67ccd3f6d8918d51!8m2!3d37.3045564!4d13.5892345!15sCiZBbW1pbmlzdHJhdG9yZSBkaSBjb25kb21pbmlvIEFncmlnZW50b5IBFnByb3BlcnR5X2FkbWluaXN0cmF0b3KqAYcBCgkvbS8wMjB5czUKCC9tLzBjOGxiEAEqICIcYW1taW5pc3RyYXRvcmUgZGkgY29uZG9taW5pbygHMiAQASIc87rNBcCPmfISFurJO5eIp7l4ZkjzEhMVmxrPLzIqEAIiJmFtbWluaXN0cmF0b3JlIGRpIGNvbmRvbWluaW8gYWdyaWdlbnRv4AEA!16s%2Fg%2F11jp7fkks2?hl=en&entry=ttu&g_ep=EgoyMDI1MDgxMy4wIKXMDSoASAFQAw%3D%3D"
Geom. Marco Piraneo Studio di amministrazione e consulenza condominiale,"Via Esseneto, 97, 92100 Agrigento AG, Italy",Agrigento,+39 327 668 2257,,,"https://www.google.com/maps/place/Carmela+Dulcetta:+Amministrazione+Condominiale+ad+Agrigento+e+Provincia/@37.3292563,13.5200751,13z/data=!4m10!1m2!2m1!1sAmministratore+di+condominio+Agrigento!3m6!1s0x131083815b83a045:0x316dd0b364f4bfba!8m2!3d37.3156956!4d13.5816842!15sCiZBbW1pbmlzdHJhdG9yZSBkaSBjb25kb21pbmlvIEFncmlnZW50b1ooIiZhbW1pbmlzdHJhdG9yZSBkaSBjb25kb21pbmlvIGFncmlnZW50b5IBFnByb3BlcnR5X2FkbWluaXN0cmF0b3KaASNDaFpEU1VoTk1HOW5TMFZKUTBGblRVUm5lSEYyWkZwQkVBRaoBhwEKCS9tLzAyMHlzNQoIL20vMGM4bGIQASogIhxhbW1pbmlzdHJhdG9yZSBkaSBjb25kb21pbmlvKAcyIBABIhzzus0FwI-Z8hIW6sk7l4inuXhmSPMSExWbGs8vMioQAiImYW1taW5pc3RyYXRvcmUgZGkgY29uZG9taW5pbyBhZ3JpZ2VudG_gAQD6AQQINxA2!16s%2Fg%2F11y1tjg5m_?hl=en&entry=ttu&g_ep=EgoyMDI1MDgxMy4wIKXMDSoASAFQAw%3D%3D"
Carmela Dulcetta: Amministrazione Condominiale ad Agrigento e Provincia,"Via Imera, 189, 92100 Agrigento AG, Italy",Agrigento,+39 340 070 4780,http://www.carmeladulcetta.it/,dulcetta.carmela@libero.it; dulcetta.carmela@pec.it,"https://www.google.com/maps/place/Scic+Energy+Srl+-+dott.+Cultrera+Salvatore/@37.3292563,13.5200751,13z/data=!4m10!1m2!2m1!1sAmministratore+di+condominio+Agrigento!3m6!1s0x1310825132e15557:0x769bdc8fdd85ac67!8m2!3d37.3137272!4d13.5821833!15sCiZBbW1pbmlzdHJhdG9yZSBkaSBjb25kb21pbmlvIEFncmlnZW50b1ooIiZhbW1pbmlzdHJhdG9yZSBkaSBjb25kb21pbmlvIGFncmlnZW50b5IBFnByb3BlcnR5X2FkbWluaXN0cmF0b3KaASNDaFpEU1VoTk1HOW5TMFZKUTBGblNVUTJPWFZRZEVkQkVBRaoBhwEKCS9tLzAyMHlzNQoIL20vMGM4bGIQASogIhxhbW1pbmlzdHJhdG9yZSBkaSBjb25kb21pbmlvKAcyIBABIhzzus0FwI-Z8hIW6sk7l4inuXhmSPMSExWbGs8vMioQAiImYW1taW5pc3RyYXRvcmUgZGkgY29uZG9taW5pbyBhZ3JpZ2VudG_gAQD6AQQIABAm!16s%2Fg%2F11h081cf_1?hl=en&entry=ttu&g_ep=EgoyMDI1MDgxMy4wIKXMDSoASAFQAw%3D%3D"
Scic Energy Srl - dott. Cultrera Salvatore,"Via Plebis Rea, 66, 92100 Agrigento AG, Italy",Agrigento,+39 0922 553332,http://www.studiograceffa.it/,studiograceffa@gmail.com,"https://www.google.com/maps/place/Studio+Graceffa+Del+Geom.+Salvatore+Graceffa/@37.3292563,13.5200751,13z/data=!4m10!1m2!2m1!1sAmministratore+di+condominio+Agrigento!3m6!1s0x131082f89320071b:0xef328552c621a2f3!8m2!3d37.3201108!4d13.5828715!15sCiZBbW1pbmlzdHJhdG9yZSBkaSBjb25kb21pbmlvIEFncmlnZW50b1ooIiZhbW1pbmlzdHJhdG9yZSBkaSBjb25kb21pbmlvIGFncmlnZW50b5IBFnByb3BlcnR5X2FkbWluaXN0cmF0b3KaASRDaGREU1VoTk1HOW5TMFZKUTBGblNVTXRjMGxFT0RGQlJSQUKqAYcBCgkvbS8wMjB5czUKCC9tLzBjOGxiEAEqICIcYW1taW5pc3RyYXRvcmUgZGkgY29uZG9taW5pbygHMiAQASIc87rNBcCPmfISFurJO5eIp7l4ZkjzEhMVmxrPLzIqEAIiJmFtbWluaXN0cmF0b3JlIGRpIGNvbmRvbWluaW8gYWdyaWdlbnRv4AEA-gEECAAQHg!16s%2Fg%2F1tdt3nrb?hl=en&entry=ttu&g_ep=EgoyMDI1MDgxMy4wIKXMDSoASAFQAw%3D%3D"
Studio Graceffa Del Geom. Salvatore Graceffa,"Via Mazzini, 44 bis, 92100 Agrigento AG, Italy",Agrigento,+39 0922 27608,http://www.studiograceffa.it/,studiograceffa@gmail.com,"https://www.google.com/maps/place/Grimaldi+Giuseppe/@37.3292563,13.5200751,13z/data=!4m10!1m2!2m1!1sAmministratore+di+condominio+Agrigento!3m6!1s0x1310825034c9fa11:0x94a1941b30d10a54!8m2!3d37.3096155!4d13.5814362!15sCiZBbW1pbmlzdHJhdG9yZSBkaSBjb25kb21pbmlvIEFncmlnZW50b5IBFnByb3BlcnR5X2FkbWluaXN0cmF0b3KqAYcBCgkvbS8wMjB5czUKCC9tLzBjOGxiEAEqICIcYW1taW5pc3RyYXRvcmUgZGkgY29uZG9taW5pbygHMiAQASIc87rNBcCPmfISFurJO5eIp7l4ZkjzEhMVmxrPLzIqEAIiJmFtbWluaXN0cmF0b3JlIGRpIGNvbmRvbWluaW8gYWdyaWdlbnRv4AEA!16s%2Fg%2F1tcx3mh4?hl=en&entry=ttu&g_ep=EgoyMDI1MDgxMy4wIKXMDSoASAFQAw%3D%3D"
Grimaldi Giuseppe,"Via Acrone, 47, 92100 Agrigento AG, Italy",Agrigento,+39 0922 606461,,,"https://www.google.com/maps/place/Studio+Di+Caro+-+Gestione+Condominiale+E+Immobiliare+Di+Maria+Di+Caro/@37.2703015,13.5502249,13z/data=!4m10!1m2!2m1!1sAmministratore+di+condominio+Agrigento!3m6!1s0x1310815850f67b2f:0xdec986bac863c7a!8m2!3d37.2703015!4d13.6223227!15sCiZBbW1pbmlzdHJhdG9yZSBkaSBjb25kb21pbmlvIEFncmlnZW50b5IBFnByb3BlcnR5X2FkbWluaXN0cmF0b3KqAYcBCgkvbS8wMjB5czUKCC9tLzBjOGxiEAEqICIcYW1taW5pc3RyYXRvcmUgZGkgY29uZG9taW5pbygHMiAQASIc87rNBcCPmfISFurJO5eIp7l4ZkjzEhMVmxrPLzIqEAIiJmFtbWluaXN0cmF0b3JlIGRpIGNvbmRvbWluaW8gYWdyaWdlbnRv4AEA!16s%2Fg%2F1ptwbqt8_?hl=en&entry=ttu&g_ep=EgoyMDI1MDgxMy4wIKXMDSoASAFQAw%3D%3D"
Studio Di Caro - Gestione Condominiale E Immobiliare Di Maria Di Caro,"Viale Leonardo Sciascia, 228, 92100 Agrigento AG, Italy",Agrigento,+39 0922 606461,,,"https://www.google.com/maps/place/Crisafulli+Rag.+Tiziana/@37.3239199,13.5220929,13z/data=!4m10!1m2!2m1!1sAmministratore+di+condominio+Agrigento!3m6!1s0x13108303c227752b:0xf56131e8689e0411!8m2!3d37.3239199!4d13.5941907!15sCiZBbW1pbmlzdHJhdG9yZSBkaSBjb25kb21pbmlvIEFncmlnZW50b5IBFnByb3BlcnR5X2FkbWluaXN0cmF0b3KqAYcBCgkvbS8wMjB5czUKCC9tLzBjOGxiEAEqICIcYW1taW5pc3RyYXRvcmUgZGkgY29uZG9taW5pbygHMiAQASIc87rNBcCPmfISFurJO5eIp7l4ZkjzEhMVmxrPLzIqEAIiJmFtbWluaXN0cmF0b3JlIGRpIGNvbmRvbWluaW8gYWdyaWdlbnRv4AEA!16s%2Fg%2F1hc47j_0y?hl=en&entry=ttu&g_ep=EgoyMDI1MDgxMy4wIKXMDSoASAFQAw%3D%3D"
Crisafulli Rag. Tiziana,"Via Mazzini, 223, 92100 Agrigento AG, Italy",Agrigento,+39 339 860 5437,,,"https://www.google.com/maps/place/Notonica+Simone/@37.3239199,13.5220929,13z/data=!4m10!1m2!2m1!1sAmministratore+di+condominio+Agrigento!3m6!1s0x13108253d03927c3:0x8bdfb381f55e4b81!8m2!3d37.3114908!4d13.5714187!15sCiZBbW1pbmlzdHJhdG9yZSBkaSBjb25kb21pbmlvIEFncmlnZW50b5IBFnByb3BlcnR5X2FkbWluaXN0cmF0b3KqAYcBCgkvbS8wMjB5czUKCC9tLzBjOGxiEAEqICIcYW1taW5pc3RyYXRvcmUgZGkgY29uZG9taW5pbygHMiAQASIc87rNBcCPmfISFurJO5eIp7l4ZkjzEhMVmxrPLzIqEAIiJmFtbWluaXN0cmF0b3JlIGRpIGNvbmRvbWluaW8gYWdyaWdlbnRv4AEA!16s%2Fg%2F1tn1ym8x?hl=en&entry=ttu&g_ep=EgoyMDI1MDgxMy4wIKXMDSoASAFQAw%3D%3D"
Studio Amministrazione condominiale di Nicolicchia Vincenzo,"Viale della Vittoria, 263/B, 92100 Agrigento AG, Italy",Agrigento,+39 380 637 7269,http://www.studionicolicchia.com/,,"https://www.google.com/maps/place/Studio+Amministrazione+condominiale+di+Nicolicchia+Vincenzo/@37.306057,13.5213313,13z/data=!4m10!1m2!2m1!1samministrazione+condomini+Agrigento!3m6!1s0x1310824d030743f1:0x38d4fb3bfc91f089!8m2!3d37.306057!4d13.5934291!15sCiNhbW1pbmlzdHJhemlvbmUgY29uZG9taW5pIEFncmlnZW50b1olIiNhbW1pbmlzdHJhemlvbmUgY29uZG9taW5pIGFncmlnZW50b5IBFnByb3BlcnR5X2FkbWluaXN0cmF0b3KaASNDaFpEU1VoTk1HOW5TMFZKUTBGblNVUjBhemN5WTBWM0VBRaoBgAEKCS9tLzAyMHlzNQoIL20vMGM4bGIQASodIhlhbW1pbmlzdHJhemlvbmUgY29uZG9taW5pKAcyHxABIhvaLQqymzcWTfMgOL-Hf0d-PqaskBiSKpmP484yJxACIiNhbW1pbmlzdHJhemlvbmUgY29uZG9taW5pIGFncmlnZW50b-ABAPoBBAgAEDM!16s%2Fg%2F11f3zmw6zg?hl=en&entry=ttu&g_ep=EgoyMDI1MDgxMy4wIKXMDSoASAFQAw%3D%3D"
Studio Amministrazione condominiale di Nicolicchia Vincenzo,"Viale della Vittoria, 263/B, 92100 Agrigento AG, Italy",Agrigento,+39 380 637 7269,http://www.studionicolicchia.com/,,"https://www.google.com/maps/place/Amministratore+di+condominio+Nuccia+Palermo/@37.306057,13.5213313,13z/data=!4m10!1m2!2m1!1samministrazione+condomini+Agrigento!3m6!1s0x1310830e5660ce73:0x43f9de6a747c06ed!8m2!3d37.3292563!4d13.5921729!15sCiNhbW1pbmlzdHJhemlvbmUgY29uZG9taW5pIEFncmlnZW50b1olIiNhbW1pbmlzdHJhemlvbmUgY29uZG9taW5pIGFncmlnZW50b5IBFnByb3BlcnR5X2FkbWluaXN0cmF0b3KaASNDaFpEU1VoTk1HOW5TMFZKUTBGblNVUm9lRnBsVVV4UkVBRaoBgAEKCS9tLzAyMHlzNQoIL20vMGM4bGIQASodIhlhbW1pbmlzdHJhemlvbmUgY29uZG9taW5pKAcyHxABIhvaLQqymzcWTfMgOL-Hf0d-PqaskBiSKpmP484yJxACIiNhbW1pbmlzdHJhemlvbmUgY29uZG9taW5pIGFncmlnZW50b-ABAPoBBAgAEA8!16s%2Fg%2F11mvs23cww?hl=en&entry=ttu&g_ep=EgoyMDI1MDgxMy4wIKXMDSoASAFQAw%3D%3D"
Amministratore di condominio Nuccia Palermo,"Via A. Di Giovanni, 15, 92100 Agrigento AG, Italy",Agrigento,+39 320 314 7988,,,"https://www.google.com/maps/place/Amministrazione+Condomini+Garufo/@37.306057,13.5213313,13z/data=!4m10!1m2!2m1!1samministrazione+condomini+Agrigento!3m6!1s0x1310831f1d33ba55:0x6adb199eca7d38d4!8m2!3d37.3358383!4d13.5937137!15sCiNhbW1pbmlzdHJhemlvbmUgY29uZG9taW5pIEFncmlnZW50b5IBFnByb3BlcnR5X2FkbWluaXN0cmF0b3KqAYABCgkvbS8wMjB5czUKCC9tLzBjOGxiEAEqHSIZYW1taW5pc3RyYXppb25lIGNvbmRvbWluaSgHMh8QASIb2i0Ksps3Fk3zIDi_h39Hfj6mrJAYkiqZj-POMicQAiIjYW1taW5pc3RyYXppb25lIGNvbmRvbWluaSBhZ3JpZ2VudG_gAQA!16s%2Fg%2F1tm929_p?hl=en&entry=ttu&g_ep=EgoyMDI1MDgxMy4wIKXMDSoASAFQAw%3D%3D"
Amministrazione Condomini Garufo,"Piazza Vincenzo Savatteri Castelli, 25 - 26 - 27, 92100 Agrigento AG, Italy",Agrigento,+39 328 201 2136,https://www.garufo.it/,info@garufo.it; segreteria@garufo.it,"https://www.google.com/maps/place/Amministratori+condominio+Acap+Agrigento/@37.306057,13.5213313,13z/data=!4m10!1m2!2m1!1samministrazione+condomini+Agrigento!3m6!1s0x1310824ddc0010cb:0xb3015de6b4856bd1!8m2!3d37.3067132!4d13.5846061!15sCiNhbW1pbmlzdHJhemlvbmUgY29uZG9taW5pIEFncmlnZW50b5IBFnByb3BlcnR5X2FkbWluaXN0cmF0b3KqAYABCgkvbS8wMjB5czUKCC9tLzBjOGxiEAEqHSIZYW1taW5pc3RyYXppb25lIGNvbmRvbWluaSgHMh8QASIb2i0Ksps3Fk3zIDi_h39Hfj6mrJAYkiqZj-POMicQAiIjYW1taW5pc3RyYXppb25lIGNvbmRvbWluaSBhZ3JpZ2VudG_gAQA!16s%2Fg%2F11g8_bpc46?hl=en&entry=ttu&g_ep=EgoyMDI1MDgxMy4wIKXMDSoASAFQAw%3D%3D"
Amministratori condominio Acap Agrigento,"Via Alessandro Manzoni, 167, 92100 Agrigento AG, Italy",Agrigento,+39 338 638 0480,http://www.amministratoriacap.com/,,"https://www.google.com/maps/place/Scic+Energy+Srl+-+dott.+Cultrera+Salvatore/@37.306057,13.5213313,13z/data=!4m10!1m2!2m1!1samministrazione+condomini+Agrigento!3m6!1s0x1310825132e15557:0x769bdc8fdd85ac67!8m2!3d37.3137272!4d13.5821833!15sCiNhbW1pbmlzdHJhemlvbmUgY29uZG9taW5pIEFncmlnZW50b1olIiNhbW1pbmlzdHJhemlvbmUgY29uZG9taW5pIGFncmlnZW50b5IBFnByb3BlcnR5X2FkbWluaXN0cmF0b3KaASNDaFpEU1VoTk1HOW5TMFZKUTBGblNVUTJPWFZRZEVkQkVBRaoBgAEKCS9tLzAyMHlzNQoIL20vMGM4bGIQASodIhlhbW1pbmlzdHJhemlvbmUgY29uZG9taW5pKAcyHxABIhvaLQqymzcWTfMgOL-Hf0d-PqaskBiSKpmP484yJxACIiNhbW1pbmlzdHJhemlvbmUgY29uZG9taW5pIGFncmlnZW50b-ABAPoBBAgAECY!16s%2Fg%2F11h081cf_1?hl=en&entry=ttu&g_ep=EgoyMDI1MDgxMy4wIKXMDSoASAFQAw%3D%3D"
Scic Energy Srl - dott. Cultrera Salvatore,"Via Plebis Rea, 66, 92100 Agrigento AG, Italy",Agrigento,+39 340 070 4780,http://www.carmeladulcetta.it/,dulcetta.carmela@libero.it; dulcetta.carmela@pec.it,"https://www.google.com/maps/place/Carmela+Dulcetta:+Amministrazione+Condominiale+ad+Agrigento+e+Provincia/@37.306057,13.5213313,13z/data=!4m10!1m2!2m1!1samministrazione+condomini+Agrigento!3m6!1s0x131083815b83a045:0x316dd0b364f4bfba!8m2!3d37.3156956!4d13.5816842!15sCiNhbW1pbmlzdHJhemlvbmUgY29uZG9taW5pIEFncmlnZW50b1olIiNhbW1pbmlzdHJhemlvbmUgY29uZG9taW5pIGFncmlnZW50b5IBFnByb3BlcnR5X2FkbWluaXN0cmF0b3KaASNDaFpEU1VoTk1HOW5TMFZKUTBGblRVUm5lSEYyWkZwQkVBRaoBgAEKCS9tLzAyMHlzNQoIL20vMGM4bGIQASodIhlhbW1pbmlzdHJhemlvbmUgY29uZG9taW5pKAcyHxABIhvaLQqymzcWTfMgOL-Hf0d-PqaskBiSKpmP484yJxACIiNhbW1pbmlzdHJhemlvbmUgY29uZG9taW5pIGFncmlnZW50b-ABAPoBBAg3EDY!16s%2Fg%2F11y1tjg5m_?hl=en&entry=ttu&g_ep=EgoyMDI1MDgxMy4wIKXMDSoASAFQAw%3D%3D"
Carmela Dulcetta: Amministrazione Condominiale ad Agrigento e Provincia,"Via Esseneto, 97, 92100 Agrigento AG, Italy",Agrigento,+39 327 668 2257,,,"https://www.google.com/maps/place/Geom.+Marco+Piraneo+Studio+di+amministrazione+e+consulenza+condominiale/@37.306057,13.5213313,13z/data=!4m10!1m2!2m1!1samministrazione+condomini+Agrigento!3m6!1s0x13108323437df371:0x67ccd3f6d8918d51!8m2!3d37.3045564!4d13.5892345!15sCiNhbW1pbmlzdHJhemlvbmUgY29uZG9taW5pIEFncmlnZW50b5IBFnByb3BlcnR5X2FkbWluaXN0cmF0b3KqAYABCgkvbS8wMjB5czUKCC9tLzBjOGxiEAEqHSIZYW1taW5pc3RyYXppb25lIGNvbmRvbWluaSgHMh8QASIb2i0Ksps3Fk3zIDi_h39Hfj6mrJAYkiqZj-POMicQAiIjYW1taW5pc3RyYXppb25lIGNvbmRvbWluaSBhZ3JpZ2VudG_gAQA!16s%2Fg%2F11jp7fkks2?hl=en&entry=ttu&g_ep=EgoyMDI1MDgxMy4wIKXMDSoASAFQAw%3D%3D"
Geom. Marco Piraneo Studio di amministrazione e consulenza condominiale,"Via Esseneto, 97, 92100 Agrigento AG, Italy",Agrigento,+39 327 668 2257,,,"https://www.google.com/maps/place/Mantisi+Geom.+Alfonso+Studio+Amministrazione+Condominiale/@37.306057,13.5213313,13z/data=!4m10!1m2!2m1!1samministrazione+condomini+Agrigento!3m6!1s0x1310824cda3529bd:0xeca30fa36d227da6!8m2!3d37.3045564!4d13.5892345!15sCiNhbW1pbmlzdHJhemlvbmUgY29uZG9taW5pIEFncmlnZW50b1olIiNhbW1pbmlzdHJhemlvbmUgY29uZG9taW5pIGFncmlnZW50b5IBFnByb3BlcnR5X2FkbWluaXN0cmF0b3KqAYABCgkvbS8wMjB5czUKCC9tLzBjOGxiEAEqHSIZYW1taW5pc3RyYXppb25lIGNvbmRvbWluaSgHMh8QASIb2i0Ksps3Fk3zIDi_h39Hfj6mrJAYkiqZj-POMicQAiIjYW1taW5pc3RyYXppb25lIGNvbmRvbWluaSBhZ3JpZ2VudG_gAQA!16s%2Fg%2F11h08llj6?hl=en&entry=ttu&g_ep=EgoyMDI1MDgxMy4wIKXMDSoASAFQAw%3D%3D"
Mantisi Geom. Alfonso Studio Amministrazione Condominiale,"Via Esseneto, 97, 92100 Agrigento AG, Italy",Agrigento,+39 0922 402544,,,"https://www.google.com/maps/place/Studio+Graceffa+Del+Geom.+Salvatore+Graceffa/@37.306057,13.5213313,13z/data=!4m10!1m2!2m1!1samministrazione+condomini+Agrigento!3m6!1s0x131082f89320071b:0xef328552c621a2f3!8m2!3d37.3201108!4d13.5828715!15sCiNhbW1pbmlzdHJhemlvbmUgY29uZG9taW5pIEFncmlnZW50b1olIiNhbW1pbmlzdHJhemlvbmUgY29uZG9taW5pIGFncmlnZW50b5IBFnByb3BlcnR5X2FkbWluaXN0cmF0b3KaASRDaGREU1VoTk1HOW5TMFZKUTBGblNVTXRjMGxFT0RGQlJSQUKqAYABCgkvbS8wMjB5czUKCC9tLzBjOGxiEAEqHSIZYW1taW5pc3RyYXppb25lIGNvbmRvbWluaSgHMh8QASIb2i0Ksps3Fk3zIDi_h39Hfj6mrJAYkiqZj-POMicQAiIjYW1taW5pc3RyYXppb25lIGNvbmRvbWluaSBhZ3JpZ2VudG_gAQD6AQQIABAe!16s%2Fg%2F1tdt3nrb?hl=en&entry=ttu&g_ep=EgoyMDI1MDgxMy4wIKXMDSoASAFQAw%3D%3D"
Studio Graceffa Del Geom. Salvatore Graceffa,"Via Mazzini, 44 bis, 92100 Agrigento AG, Italy",Agrigento,+39 0922 606461,,,"https://www.google.com/maps/place/Studio+Di+Caro+-+Gestione+Condominiale+E+Immobiliare+Di+Maria+Di+Caro/@37.306057,13.5213313,13z/data=!4m10!1m2!2m1!1samministrazione+condomini+Agrigento!3m6!1s0x1310815850f67b2f:0xdec986bac863c7a!8m2!3d37.2703015!4d13.6223227!15sCiNhbW1pbmlzdHJhemlvbmUgY29uZG9taW5pIEFncmlnZW50b5IBFnByb3BlcnR5X2FkbWluaXN0cmF0b3KqAYABCgkvbS8wMjB5czUKCC9tLzBjOGxiEAEqHSIZYW1taW5pc3RyYXppb25lIGNvbmRvbWluaSgHMh8QASIb2i0Ksps3Fk3zIDi_h39Hfj6mrJAYkiqZj-POMicQAiIjYW1taW5pc3RyYXppb25lIGNvbmRvbWluaSBhZ3JpZ2VudG_gAQA!16s%2Fg%2F1ptwbqt8_?hl=en&entry=ttu&g_ep=EgoyMDI1MDgxMy4wIKXMDSoASAFQAw%3D%3D"
Studio Di Caro - Gestione Condominiale E Immobiliare Di Maria Di Caro,"Via Mazzini, 223, 92100 Agrigento AG, Italy",Agrigento,+39 339 860 5437,,,"https://www.google.com/maps/place/Crisafulli+Rag.+Tiziana/@37.306057,13.5213313,13z/data=!4m10!1m2!2m1!1samministrazione+condomini+Agrigento!3m6!1s0x13108303c227752b:0xf56131e8689e0411!8m2!3d37.3239199!4d13.5941907!15sCiNhbW1pbmlzdHJhemlvbmUgY29uZG9taW5pIEFncmlnZW50b5IBFnByb3BlcnR5X2FkbWluaXN0cmF0b3KqAYABCgkvbS8wMjB5czUKCC9tLzBjOGxiEAEqHSIZYW1taW5pc3RyYXppb25lIGNvbmRvbWluaSgHMh8QASIb2i0Ksps3Fk3zIDi_h39Hfj6mrJAYkiqZj-POMicQAiIjYW1taW5pc3RyYXppb25lIGNvbmRvbWluaSBhZ3JpZ2VudG_gAQA!16s%2Fg%2F1hc47j_0y?hl=en&entry=ttu&g_ep=EgoyMDI1MDgxMy4wIKXMDSoASAFQAw%3D%3D"
Notonica Simone,"Via Dante Alighieri, 252, 92100 Agrigento AG, Italy",Agrigento,+39 0922 401414,,,"https://www.google.com/maps/place/Notonica+Simone/@37.306057,13.5213313,13z/data=!4m10!1m2!2m1!1samministrazione+condomini+Agrigento!3m6!1s0x13108253d03927c3:0x8bdfb381f55e4b81!8m2!3d37.3114908!4d13.5714187!15sCiNhbW1pbmlzdHJhemlvbmUgY29uZG9taW5pIEFncmlnZW50b5IBFnByb3BlcnR5X2FkbWluaXN0cmF0b3KqAYABCgkvbS8wMjB5czUKCC9tLzBjOGxiEAEqHSIZYW1taW5pc3RyYXppb25lIGNvbmRvbWluaSgHMh8QASIb2i0Ksps3Fk3zIDi_h39Hfj6mrJAYkiqZj-POMicQAiIjYW1taW5pc3RyYXppb25lIGNvbmRvbWluaSBhZ3JpZ2VudG_gAQA!16s%2Fg%2F1tn1ym8x?hl=en&entry=ttu&g_ep=EgoyMDI1MDgxMy4wIKXMDSoASAFQAw%3D%3D"
Studio Amministrazione condominiale di Nicolicchia Vincenzo,"Viale della Vittoria, 263/B, 92100 Agrigento AG, Italy",Agrigento,+39 380 637 7269,http://www.studionicolicchia.com/,,"https://www.google.com/maps/place/Studio+Amministrazione+condominiale+di+Nicolicchia+Vincenzo/@37.306057,13.5213313,13z/data=!4m10!1m2!2m1!1samministrazione+condominiale+Agrigento!3m6!1s0x1310824d030743f1:0x38d4fb3bfc91f089!8m2!3d37.306057!4d13.5934291!15sCiZhbW1pbmlzdHJhemlvbmUgY29uZG9taW5pYWxlIEFncmlnZW50b1ooIiZhbW1pbmlzdHJhemlvbmUgY29uZG9taW5pYWxlIGFncmlnZW50b5IBFnByb3BlcnR5X2FkbWluaXN0cmF0b3KaASNDaFpEU1VoTk1HOW5TMFZKUTBGblNVUjBhemN5WTBWM0VBRaoBhgEKCS9tLzAyMHlzNQoIL20vMGM4bGIQASogIhxhbW1pbmlzdHJhemlvbmUgY29uZG9taW5pYWxlKAcyHxABIhvwLj_opVraRcy_bIwXquMa2nWrY_pyHBjoUvEyKhACIiZhbW1pbmlzdHJhemlvbmUgY29uZG9taW5pYWxlIGFncmlnZW50b-ABAPoBBAgAEDM!16s%2Fg%2F11f3zmw6zg?hl=en&entry=ttu&g_ep=EgoyMDI1MDgxMy4wIKXMDSoASAFQAw%3D%3D"
Studio Amministrazione condominiale di Nicolicchia Vincenzo,"Via A. Di Giovanni, 15, 92100 Agrigento AG, Italy",Agrigento,+39 320 314 7988,,,"https://www.google.com/maps/place/Amministratore+di+condominio+Nuccia+Palermo/@37.306057,13.5213313,13z/data=!4m10!1m2!2m1!1samministrazione+condominiale+Agrigento!3m6!1s0x1310830e5660ce73:0x43f9de6a747c06ed!8m2!3d37.3292563!4d13.5921729!15sCiZhbW1pbmlzdHJhemlvbmUgY29uZG9taW5pYWxlIEFncmlnZW50b1ooIiZhbW1pbmlzdHJhemlvbmUgY29uZG9taW5pYWxlIGFncmlnZW50b5IBFnByb3BlcnR5X2FkbWluaXN0cmF0b3KaASNDaFpEU1VoTk1HOW5TMFZKUTBGblNVUm9lRnBsVVV4UkVBRaoBhgEKCS9tLzAyMHlzNQoIL20vMGM4bGIQASogIhxhbW1pbmlzdHJhemlvbmUgY29uZG9taW5pYWxlKAcyHxABIhvwLj_opVraRcy_bIwXquMa2nWrY_pyHBjoUvEyKhACIiZhbW1pbmlzdHJhemlvbmUgY29uZG9taW5pYWxlIGFncmlnZW50b-ABAPoBBAgAEA8!16s%2Fg%2F11mvs23cww?hl=en&entry=ttu&g_ep=EgoyMDI1MDgxMy4wIKXMDSoASAFQAw%3D%3D"
Amministratore di condominio Nuccia Palermo,"Via Alessandro Manzoni, 167, 92100 Agrigento AG, Italy",Agrigento,+39 338 638 0480,http://www.amministratoriacap.com/,,"https://www.google.com/maps/place/Amministratori+condominio+Acap+Agrigento/@37.306057,13.5213313,13z/data=!4m10!1m2!2m1!1samministrazione+condominiale+Agrigento!3m6!1s0x1310824ddc0010cb:0xb3015de6b4856bd1!8m2!3d37.3067132!4d13.5846061!15sCiZhbW1pbmlzdHJhemlvbmUgY29uZG9taW5pYWxlIEFncmlnZW50b5IBFnByb3BlcnR5X2FkbWluaXN0cmF0b3KqAYYBCgkvbS8wMjB5czUKCC9tLzBjOGxiEAEqICIcYW1taW5pc3RyYXppb25lIGNvbmRvbWluaWFsZSgHMh8QASIb8C4_6KVa2kXMv2yMF6rjGtp1q2P6chwY6FLxMioQAiImYW1taW5pc3RyYXppb25lIGNvbmRvbWluaWFsZSBhZ3JpZ2VudG_gAQA!16s%2Fg%2F11g8_bpc46?hl=en&entry=ttu&g_ep=EgoyMDI1MDgxMy4wIKXMDSoASAFQAw%3D%3D"
Amministratori condominio Acap Agrigento,"Via Alessandro Manzoni, 167, 92100 Agrigento AG, Italy",Agrigento,+39 338 638 0480,https://www.garufo.it/,info@garufo.it; segreteria@garufo.it,"https://www.google.com/maps/place/Amministrazione+Condomini+Garufo/@37.306057,13.5213313,13z/data=!4m10!1m2!2m1!1samministrazione+condominiale+Agrigento!3m6!1s0x1310831f1d33ba55:0x6adb199eca7d38d4!8m2!3d37.3358383!4d13.5937137!15sCiZhbW1pbmlzdHJhemlvbmUgY29uZG9taW5pYWxlIEFncmlnZW50b5IBFnByb3BlcnR5X2FkbWluaXN0cmF0b3KqAYYBCgkvbS8wMjB5czUKCC9tLzBjOGxiEAEqICIcYW1taW5pc3RyYXppb25lIGNvbmRvbWluaWFsZSgHMh8QASIb8C4_6KVa2kXMv2yMF6rjGtp1q2P6chwY6FLxMioQAiImYW1taW5pc3RyYXppb25lIGNvbmRvbWluaWFsZSBhZ3JpZ2VudG_gAQA!16s%2Fg%2F1tm929_p?hl=en&entry=ttu&g_ep=EgoyMDI1MDgxMy4wIKXMDSoASAFQAw%3D%3D"
Amministrazione Condomini Garufo,"Piazza Vincenzo Savatteri Castelli, 25 - 26 - 27, 92100 Agrigento AG, Italy",Agrigento,+39 328 201 2136,https://www.garufo.it/,info@garufo.it; segreteria@garufo.it,"https://www.google.com/maps/place/Carmela+Dulcetta:+Amministrazione+Condominiale+ad+Agrigento+e+Provincia/@37.306057,13.5213313,13z/data=!4m10!1m2!2m1!1samministrazione+condominiale+Agrigento!3m6!1s0x131083815b83a045:0x316dd0b364f4bfba!8m2!3d37.3156956!4d13.5816842!15sCiZhbW1pbmlzdHJhemlvbmUgY29uZG9taW5pYWxlIEFncmlnZW50b1ooIiZhbW1pbmlzdHJhemlvbmUgY29uZG9taW5pYWxlIGFncmlnZW50b5IBFnByb3BlcnR5X2FkbWluaXN0cmF0b3KaASNDaFpEU1VoTk1HOW5TMFZKUTBGblRVUm5lSEYyWkZwQkVBRaoBhgEKCS9tLzAyMHlzNQoIL20vMGM4bGIQASogIhxhbW1pbmlzdHJhemlvbmUgY29uZG9taW5pYWxlKAcyHxABIhvwLj_opVraRcy_bIwXquMa2nWrY_pyHBjoUvEyKhACIiZhbW1pbmlzdHJhemlvbmUgY29uZG9taW5pYWxlIGFncmlnZW50b-ABAPoBBAg3EDY!16s%2Fg%2F11y1tjg5m_?hl=en&entry=ttu&g_ep=EgoyMDI1MDgxMy4wIKXMDSoASAFQAw%3D%3D"
Carmela Dulcetta: Amministrazione Condominiale ad Agrigento e Provincia,"Via Imera, 189, 92100 Agrigento AG, Italy",Agrigento,+39 340 070 4780,http://www.carmeladulcetta.it/,dulcetta.carmela@libero.it; dulcetta.carmela@pec.it,"https://www.google.com/maps/place/Geom.+Marco+Piraneo+Studio+di+amministrazione+e+consulenza+condominiale/@37.306057,13.5213313,13z/data=!4m10!1m2!2m1!1samministrazione+condominiale+Agrigento!3m6!1s0x13108323437df371:0x67ccd3f6d8918d51!8m2!3d37.3045564!4d13.5892345!15sCiZhbW1pbmlzdHJhemlvbmUgY29uZG9taW5pYWxlIEFncmlnZW50b5IBFnByb3BlcnR5X2FkbWluaXN0cmF0b3KqAYYBCgkvbS8wMjB5czUKCC9tLzBjOGxiEAEqICIcYW1taW5pc3RyYXppb25lIGNvbmRvbWluaWFsZSgHMh8QASIb8C4_6KVa2kXMv2yMF6rjGtp1q2P6chwY6FLxMioQAiImYW1taW5pc3RyYXppb25lIGNvbmRvbWluaWFsZSBhZ3JpZ2VudG_gAQA!16s%2Fg%2F11jp7fkks2?hl=en&entry=ttu&g_ep=EgoyMDI1MDgxMy4wIKXMDSoASAFQAw%3D%3D"
Geom. Marco Piraneo Studio di amministrazione e consulenza condominiale,"Via Esseneto, 97, 92100 Agrigento AG, Italy",Agrigento,+39 327 668 2257,,,"https://www.google.com/maps/place/Mantisi+Geom.+Alfonso+Studio+Amministrazione+Condominiale/@37.306057,13.5213313,13z/data=!4m10!1m2!2m1!1samministrazione+condominiale+Agrigento!3m6!1s0x1310824cda3529bd:0xeca30fa36d227da6!8m2!3d37.3045564!4d13.5892345!15sCiZhbW1pbmlzdHJhemlvbmUgY29uZG9taW5pYWxlIEFncmlnZW50b1ooIiZhbW1pbmlzdHJhemlvbmUgY29uZG9taW5pYWxlIGFncmlnZW50b5IBFnByb3BlcnR5X2FkbWluaXN0cmF0b3KqAYYBCgkvbS8wMjB5czUKCC9tLzBjOGxiEAEqICIcYW1taW5pc3RyYXppb25lIGNvbmRvbWluaWFsZSgHMh8QASIb8C4_6KVa2kXMv2yMF6rjGtp1q2P6chwY6FLxMioQAiImYW1taW5pc3RyYXppb25lIGNvbmRvbWluaWFsZSBhZ3JpZ2VudG_gAQA!16s%2Fg%2F11h08llj6?hl=en&entry=ttu&g_ep=EgoyMDI1MDgxMy4wIKXMDSoASAFQAw%3D%3D"
Mantisi Geom. Alfonso Studio Amministrazione Condominiale,"Via Esseneto, 97, 92100 Agrigento AG, Italy",Agrigento,+39 0922 402544,,,"https://www.google.com/maps/place/Studio+Graceffa+Del+Geom.+Salvatore+Graceffa/@37.306057,13.5213313,13z/data=!4m10!1m2!2m1!1samministrazione+condominiale+Agrigento!3m6!1s0x131082f89320071b:0xef328552c621a2f3!8m2!3d37.3201108!4d13.5828715!15sCiZhbW1pbmlzdHJhemlvbmUgY29uZG9taW5pYWxlIEFncmlnZW50b1ooIiZhbW1pbmlzdHJhemlvbmUgY29uZG9taW5pYWxlIGFncmlnZW50b5IBFnByb3BlcnR5X2FkbWluaXN0cmF0b3KaASRDaGREU1VoTk1HOW5TMFZKUTBGblNVTXRjMGxFT0RGQlJSQUKqAYYBCgkvbS8wMjB5czUKCC9tLzBjOGxiEAEqICIcYW1taW5pc3RyYXppb25lIGNvbmRvbWluaWFsZSgHMh8QASIb8C4_6KVa2kXMv2yMF6rjGtp1q2P6chwY6FLxMioQAiImYW1taW5pc3RyYXppb25lIGNvbmRvbWluaWFsZSBhZ3JpZ2VudG_gAQD6AQQIABAe!16s%2Fg%2F1tdt3nrb?hl=en&entry=ttu&g_ep=EgoyMDI1MDgxMy4wIKXMDSoASAFQAw%3D%3D"
Scic Energy Srl - dott. Cultrera Salvatore,"Via Plebis Rea, 66, 92100 Agrigento AG, Italy",Agrigento,+39 0922 553332,http://scicenergy.it/,,"https://www.google.com/maps/place/Scic+Energy+Srl+-+dott.+Cultrera+Salvatore/@37.306057,13.5213313,13z/data=!4m10!1m2!2m1!1samministrazione+condominiale+Agrigento!3m6!1s0x1310825132e15557:0x769bdc8fdd85ac67!8m2!3d37.3137272!4d13.5821833!15sCiZhbW1pbmlzdHJhemlvbmUgY29uZG9taW5pYWxlIEFncmlnZW50b1ooIiZhbW1pbmlzdHJhemlvbmUgY29uZG9taW5pYWxlIGFncmlnZW50b5IBFnByb3BlcnR5X2FkbWluaXN0cmF0b3KaASNDaFpEU1VoTk1HOW5TMFZKUTBGblNVUTJPWFZRZEVkQkVBRaoBhgEKCS9tLzAyMHlzNQoIL20vMGM4bGIQASogIhxhbW1pbmlzdHJhemlvbmUgY29uZG9taW5pYWxlKAcyHxABIhvwLj_opVraRcy_bIwXquMa2nWrY_pyHBjoUvEyKhACIiZhbW1pbmlzdHJhemlvbmUgY29uZG9taW5pYWxlIGFncmlnZW50b-ABAPoBBAgAECY!16s%2Fg%2F11h081cf_1?hl=en&entry=ttu&g_ep=EgoyMDI1MDgxMy4wIKXMDSoASAFQAw%3D%3D"
Scic Energy Srl - dott. Cultrera Salvatore,"Via Plebis Rea, 66, 92100 Agrigento AG, Italy",Agrigento,+39 0922 553332,http://scicenergy.it/,,"https://www.google.com/maps/place/Studio+Di+Caro+-+Gestione+Condominiale+E+Immobiliare+Di+Maria+Di+Caro/@37.306057,13.5213313,13z/data=!4m10!1m2!2m1!1samministrazione+condominiale+Agrigento!3m6!1s0x1310815850f67b2f:0xdec986bac863c7a!8m2!3d37.2703015!4d13.6223227!15sCiZhbW1pbmlzdHJhemlvbmUgY29uZG9taW5pYWxlIEFncmlnZW50b5IBFnByb3BlcnR5X2FkbWluaXN0cmF0b3KqAYYBCgkvbS8wMjB5czUKCC9tLzBjOGxiEAEqICIcYW1taW5pc3RyYXppb25lIGNvbmRvbWluaWFsZSgHMh8QASIb8C4_6KVa2kXMv2yMF6rjGtp1q2P6chwY6FLxMioQAiImYW1taW5pc3RyYXppb25lIGNvbmRvbWluaWFsZSBhZ3JpZ2VudG_gAQA!16s%2Fg%2F1ptwbqt8_?hl=en&entry=ttu&g_ep=EgoyMDI1MDgxMy4wIKXMDSoASAFQAw%3D%3D"
Studio Di Caro - Gestione Condominiale E Immobiliare Di Maria Di Caro,"Viale Leonardo Sciascia, 228, 92100 Agrigento AG, Italy",Agrigento,+39 0922 606461,,,"https://www.google.com/maps/place/Crisafulli+Rag.+Tiziana/@37.306057,13.5213313,13z/data=!4m10!1m2!2m1!1samministrazione+condominiale+Agrigento!3m6!1s0x13108303c227752b:0xf56131e8689e0411!8m2!3d37.3239199!4d13.5941907!15sCiZhbW1pbmlzdHJhemlvbmUgY29uZG9taW5pYWxlIEFncmlnZW50b5IBFnByb3BlcnR5X2FkbWluaXN0cmF0b3KqAYYBCgkvbS8wMjB5czUKCC9tLzBjOGxiEAEqICIcYW1taW5pc3RyYXppb25lIGNvbmRvbWluaWFsZSgHMh8QASIb8C4_6KVa2kXMv2yMF6rjGtp1q2P6chwY6FLxMioQAiImYW1taW5pc3RyYXppb25lIGNvbmRvbWluaWFsZSBhZ3JpZ2VudG_gAQA!16s%2Fg%2F1hc47j_0y?hl=en&entry=ttu&g_ep=EgoyMDI1MDgxMy4wIKXMDSoASAFQAw%3D%3D"
Ambrosio Amministrazione di Condomini,"Spalto Marengo, 44 Palazzo Pacto, 15121 Alessandria AL, Italy",Alessandria,+39 0131 225762,,,"https://www.google.com/maps/place/Ambrosio+Amministrazione+di+Condomini/@44.9115426,8.6048832,15z/data=!4m10!1m2!2m1!1sAmministratore+di+condominio+Alessandria!3m6!1s0x4787743876dec1db:0xad18a2773271589b!8m2!3d44.916753!4d8.624552!15sCihBbW1pbmlzdHJhdG9yZSBkaSBjb25kb21pbmlvIEFsZXNzYW5kcmlhWioiKGFtbWluaXN0cmF0b3JlIGRpIGNvbmRvbWluaW8gYWxlc3NhbmRyaWGSARtwcm9wZXJ0eV9tYW5hZ2VtZW50X2NvbXBhbnmaASRDaGREU1VoTk1HOW5TMFZPVjNsNGNEWlZNMlZ0T1cxblJSQUKqAYoBCgkvbS8wMjB5czUKCS9tLzAyYmJfNBABKiAiHGFtbWluaXN0cmF0b3JlIGRpIGNvbmRvbWluaW8oBzIgEAEiHPO9l5ETZGOpAOR8F3-BCUgaq1kfDR3FSXozSEoyLBACIihhbW1pbmlzdHJhdG9yZSBkaSBjb25kb21pbmlvIGFsZXNzYW5kcmlh4AEA-gEECD8QHg!16s%2Fg%2F1tn4x151?hl=en&entry=ttu&g_ep=EgoyMDI1MDgxMy4wIKXMDSoASAFQAw%3D%3D"
Ambrosio Amministrazione di Condomini,"Spalto Marengo, 44 Palazzo Pacto, 15121 Alessandria AL, Italy",Alessandria,+39 0131 225762,,,"https://www.google.com/maps/place/AMMINISTRAZIONI+CONDOMINIALI+LOMBARDI+PAOLO/@44.9115426,8.6048832,15z/data=!4m10!1m2!2m1!1sAmministratore+di+condominio+Alessandria!3m6!1s0x478775638c2d72d9:0x2dd81573c14f1901!8m2!3d44.913839!4d8.620546!15sCihBbW1pbmlzdHJhdG9yZSBkaSBjb25kb21pbmlvIEFsZXNzYW5kcmlhWioiKGFtbWluaXN0cmF0b3JlIGRpIGNvbmRvbWluaW8gYWxlc3NhbmRyaWGSARZwcm9wZXJ0eV9hZG1pbmlzdHJhdG9ymgEkQ2hkRFNVaE5NRzluUzBWSlEwRm5TVU5YTjAxUFZITjNSUkFCqgGKAQoJL20vMDIweXM1CgkvbS8wMmJiXzQQASogIhxhbW1pbmlzdHJhdG9yZSBkaSBjb25kb21pbmlvKAcyIBABIhzzvZeRE2RjqQDkfBd_gQlIGqtZHw0dxUl6M0hKMiwQAiIoYW1taW5pc3RyYXRvcmUgZGkgY29uZG9taW5pbyBhbGVzc2FuZHJpYeABAPoBBAgAEBw!16s%2Fg%2F11ghs961vl?hl=en&entry=ttu&g_ep=EgoyMDI1MDgxMy4wIKXMDSoASAFQAw%3D%3D"
AMMINISTRAZIONI CONDOMINIALI LOMBARDI PAOLO,"Via Gerolamo Savonarola, 84, 15121 Alessandria AL, Italy",Alessandria,+39 0131 195 0049,,,"https://www.google.com/maps/place/Gastaldi+Lorenzo+S.A.S./@44.9123328,8.5965999,15z/data=!4m10!1m2!2m1!1sAmministratore+di+condominio+Alessandria!3m6!1s0x4787743bf580c413:0x7f1f448361aea2a6!8m2!3d44.9123328!4d8.6146243!15sCihBbW1pbmlzdHJhdG9yZSBkaSBjb25kb21pbmlvIEFsZXNzYW5kcmlhWioiKGFtbWluaXN0cmF0b3JlIGRpIGNvbmRvbWluaW8gYWxlc3NhbmRyaWGSARZwcm9wZXJ0eV9hZG1pbmlzdHJhdG9ymgEjQ2haRFNVaE5NRzluUzBWSlEwRm5TVVJvY0ZCWFEyVm5FQUWqAYoBCgkvbS8wMjB5czUKCS9tLzAyYmJfNBABKiAiHGFtbWluaXN0cmF0b3JlIGRpIGNvbmRvbWluaW8oBzIgEAEiHPO9l5ETZGOpAOR8F3-BCUgaq1kfDR3FSXozSEoyLBACIihhbW1pbmlzdHJhdG9yZSBkaSBjb25kb21pbmlvIGFsZXNzYW5kcmlh4AEA-gEECAAQEA!16s%2Fg%2F1tdgt8bl?hl=en&entry=ttu&g_ep=EgoyMDI1MDgxMy4wIKXMDSoASAFQAw%3D%3D"
Gastaldi Lorenzo S.A.S.,"Via S. Giacomo della Vittoria, 25, 15121 Alessandria AL, Italy",Alessandria,+39 0131 441465,,,"https://www.google.com/maps/place/Studio+Geom.+Cirillo+Amministrazioni+Condominiali/@44.9123328,8.5965999,15z/data=!4m10!1m2!2m1!1sAmministratore+di+condominio+Alessandria!3m6!1s0x4787743ca23adee5:0x3cea3ace9136e1a3!8m2!3d44.9098175!4d8.6142201!15sCihBbW1pbmlzdHJhdG9yZSBkaSBjb25kb21pbmlvIEFsZXNzYW5kcmlhkgEWcHJvcGVydHlfYWRtaW5pc3RyYXRvcqoBigEKCS9tLzAyMHlzNQoJL20vMDJiYl80EAEqICIcYW1taW5pc3RyYXRvcmUgZGkgY29uZG9taW5pbygHMiAQASIc872XkRNkY6kA5HwXf4EJSBqrWR8NHcVJejNISjIsEAIiKGFtbWluaXN0cmF0b3JlIGRpIGNvbmRvbWluaW8gYWxlc3NhbmRyaWHgAQA!16s%2Fg%2F11b6hv_v38?hl=en&entry=ttu&g_ep=EgoyMDI1MDgxMy4wIKXMDSoASAFQAw%3D%3D"
Studio Geom. Cirillo Amministrazioni Condominiali,"Via Giorgio Merula, 8, 15121 Alessandria AL, Italy",Alessandria,+39 0131 227175,http://stgeometracirillo.myadj.it/,,"https://www.google.com/maps/place/Porraro+Luigi+-+Domeus+Amministrazioni+Immobiliari/@44.9123328,8.5965999,15z/data=!4m10!1m2!2m1!1sAmministratore+di+condominio+Alessandria!3m6!1s0x4787743f4ca0b8e1:0x415447a239668b9d!8m2!3d44.91707!4d8.61613!15sCihBbW1pbmlzdHJhdG9yZSBkaSBjb25kb21pbmlvIEFsZXNzYW5kcmlhWioiKGFtbWluaXN0cmF0b3JlIGRpIGNvbmRvbWluaW8gYWxlc3NhbmRyaWGSARZwcm9wZXJ0eV9hZG1pbmlzdHJhdG9yqgGKAQoJL20vMDIweXM1CgkvbS8wMmJiXzQQASogIhxhbW1pbmlzdHJhdG9yZSBkaSBjb25kb21pbmlvKAcyIBABIhzzvZeRE2RjqQDkfBd_gQlIGqtZHw0dxUl6M0hKMiwQAiIoYW1taW5pc3RyYXRvcmUgZGkgY29uZG9taW5pbyBhbGVzc2FuZHJpYeABAA!16s%2Fg%2F1hc4hnkt2?hl=en&entry=ttu&g_ep=EgoyMDI1MDgxMy4wIKXMDSoASAFQAw%3D%3D"
Porraro Luigi - Domeus Amministrazioni Immobiliari,"V.Verona, 102, 15121 Alessandria AL, Italy",Alessandria,+39 347 315 6462,,,"https://www.google.com/maps/place/Amministrazione+Condomini+DELLA+VALLE+Paolo/@44.9021538,8.5874096,15z/data=!4m10!1m2!2m1!1sAmministratore+di+condominio+Alessandria!3m6!1s0x478774287c5cc513:0x4f863d228888030e!8m2!3d44.9021538!4d8.605434!15sCihBbW1pbmlzdHJhdG9yZSBkaSBjb25kb21pbmlvIEFsZXNzYW5kcmlhkgEWcHJvcGVydHlfYWRtaW5pc3RyYXRvcqoBigEKCS9tLzAyMHlzNQoJL20vMDJiYl80EAEqICIcYW1taW5pc3RyYXRvcmUgZGkgY29uZG9taW5pbygHMiAQASIc872XkRNkY6kA5HwXf4EJSBqrWR8NHcVJejNISjIsEAIiKGFtbWluaXN0cmF0b3JlIGRpIGNvbmRvbWluaW8gYWxlc3NhbmRyaWHgAQA!16s%2Fg%2F11g6xs8thp?hl=en&entry=ttu&g_ep=EgoyMDI1MDgxMy4wIKXMDSoASAFQAw%3D%3D"
Amministrazione Condomini DELLA VALLE Paolo,"Via Mario Maggioli, 23, 15121 Alessandria AL, Italy",Alessandria,+39 0131 261740,,,"https://www.google.com/maps/place/Studio+G.A.I.A.+Sas+Di+Signorini+Mario+%26+C/@44.9137429,8.6089465,15z/data=!4m10!1m2!2m1!1sAmministratore+di+condominio+Alessandria!3m6!1s0x478774138de9e0e3:0xb947d1596518f02c!8m2!3d44.9137429!4d8.6269709!15sCihBbW1pbmlzdHJhdG9yZSBkaSBjb25kb21pbmlvIEFsZXNzYW5kcmlhWioiKGFtbWluaXN0cmF0b3JlIGRpIGNvbmRvbWluaW8gYWxlc3NhbmRyaWGSARZwcm9wZXJ0eV9hZG1pbmlzdHJhdG9ymgEjQ2haRFNVaE5NRzluUzBWSlEwRm5TVVF0T1UwdFMweEJFQUWqAYoBCgkvbS8wMjB5czUKCS9tLzAyYmJfNBABKiAiHGFtbWluaXN0cmF0b3JlIGRpIGNvbmRvbWluaW8oBzIgEAEiHPO9l5ETZGOpAOR8F3-BCUgaq1kfDR3FSXozSEoyLBACIihhbW1pbmlzdHJhdG9yZSBkaSBjb25kb21pbmlvIGFsZXNzYW5kcmlh4AEA-gEECAAQOQ!16s%2Fg%2F1thcr6mq?hl=en&entry=ttu&g_ep=EgoyMDI1MDgxMy4wIKXMDSoASAFQAw%3D%3D"
Studio G.A.I.A. Sas Di Signorini Mario & C,"Spalto Marengo, 85, 15121 Alessandria AL, Italy",Alessandria,+39 0131 261740,,,"https://www.google.com/maps/place/Tassistro+Adriana/@44.9137429,8.6089465,15z/data=!4m10!1m2!2m1!1sAmministratore+di+condominio+Alessandria!3m6!1s0x47877414102609cd:0x4c41b24b2ac662e3!8m2!3d44.9132799!4d8.6255431!15sCihBbW1pbmlzdHJhdG9yZSBkaSBjb25kb21pbmlvIEFsZXNzYW5kcmlhWioiKGFtbWluaXN0cmF0b3JlIGRpIGNvbmRvbWluaW8gYWxlc3NhbmRyaWGSARZwcm9wZXJ0eV9hZG1pbmlzdHJhdG9ymgEjQ2haRFNVaE5NRzluUzBWSlEwRm5TVVEyTFdGWU5XWkJFQUWqAYoBCgkvbS8wMjB5czUKCS9tLzAyYmJfNBABKiAiHGFtbWluaXN0cmF0b3JlIGRpIGNvbmRvbWluaW8oBzIgEAEiHPO9l5ETZGOpAOR8F3-BCUgaq1kfDR3FSXozSEoyLBACIihhbW1pbmlzdHJhdG9yZSBkaSBjb25kb21pbmlvIGFsZXNzYW5kcmlh4AEA-gEECAAQHA!16s%2Fg%2F1w3w1yjl?hl=en&entry=ttu&g_ep=EgoyMDI1MDgxMy4wIKXMDSoASAFQAw%3D%3D"
Tassistro Adriana,"Via Giorgio Solero, 18, 15121 Alessandria AL, Italy",Alessandria,+39 0131 266415,,,"https://www.google.com/maps/place/Cerrano+Enrica+Amministrazione+Condominiali/@44.9137429,8.6089465,15z/data=!4m10!1m2!2m1!1sAmministratore+di+condominio+Alessandria!3m6!1s0x47877581c25735a5:0x496b9310929fa052!8m2!3d44.9060065!4d8.6244623!15sCihBbW1pbmlzdHJhdG9yZSBkaSBjb25kb21pbmlvIEFsZXNzYW5kcmlhWioiKGFtbWluaXN0cmF0b3JlIGRpIGNvbmRvbWluaW8gYWxlc3NhbmRyaWGSARtwcm9wZXJ0eV9tYW5hZ2VtZW50X2NvbXBhbnmaASNDaFpEU1VoTk1HOW5TMFZKUTBGblRVTlplWEIyWVVkUkVBRaoBigEKCS9tLzAyMHlzNQoJL20vMDJiYl80EAEqICIcYW1taW5pc3RyYXRvcmUgZGkgY29uZG9taW5pbygHMiAQASIc872XkRNkY6kA5HwXf4EJSBqrWR8NHcVJejNISjIsEAIiKGFtbWluaXN0cmF0b3JlIGRpIGNvbmRvbWluaW8gYWxlc3NhbmRyaWHgAQD6AQQIABAs!16s%2Fg%2F11pv77412t?hl=en&entry=ttu&g_ep=EgoyMDI1MDgxMy4wIKXMDSoASAFQAw%3D%3D"
Cerrano Enrica Amministrazione Condominiali,"Via Silvio Pellico, 1/R, 15121 Alessandria AL, Italy",Alessandria,+39 0131 197 8140,,,"https://www.google.com/maps/place/STUDIO+BIANCO+di+Rag.+Valentina+Bianco/@44.9137429,8.6089465,15z/data=!4m10!1m2!2m1!1sAmministratore+di+condominio+Alessandria!3m6!1s0x4787759f78a343b1:0x847b05e6017602c2!8m2!3d44.9093522!4d8.6227469!15sCihBbW1pbmlzdHJhdG9yZSBkaSBjb25kb21pbmlvIEFsZXNzYW5kcmlhkgEWcHJvcGVydHlfYWRtaW5pc3RyYXRvcqoBigEKCS9tLzAyMHlzNQoJL20vMDJiYl80EAEqICIcYW1taW5pc3RyYXRvcmUgZGkgY29uZG9taW5pbygHMiAQASIc872XkRNkY6kA5HwXf4EJSBqrWR8NHcVJejNISjIsEAIiKGFtbWluaXN0cmF0b3JlIGRpIGNvbmRvbWluaW8gYWxlc3NhbmRyaWHgAQA!16s%2Fg%2F11rvbhwz7v?hl=en&entry=ttu&g_ep=EgoyMDI1MDgxMy4wIKXMDSoASAFQAw%3D%3D"
STUDIO BIANCO di Rag. Valentina Bianco,"Piazza Massimo D'Azeglio, 10, 15121 Alessandria AL, Italy",Alessandria,+39 379 217 9566,https://studiobianco-al.it/,,"https://www.google.com/maps/place/Grimaldi+Giorgio/@44.9141179,8.5919138,15z/data=!4m10!1m2!2m1!1sAmministratore+di+condominio+Alessandria!3m6!1s0x478774112b0a2bd1:0xa174c1864ea765dd!8m2!3d44.9141179!4d8.6099382!15sCihBbW1pbmlzdHJhdG9yZSBkaSBjb25kb21pbmlvIEFsZXNzYW5kcmlhkgEWcHJvcGVydHlfYWRtaW5pc3RyYXRvcqoBigEKCS9tLzAyMHlzNQoJL20vMDJiYl80EAEqICIcYW1taW5pc3RyYXRvcmUgZGkgY29uZG9taW5pbygHMiAQASIc872XkRNkY6kA5HwXf4EJSBqrWR8NHcVJejNISjIsEAIiKGFtbWluaXN0cmF0b3JlIGRpIGNvbmRvbWluaW8gYWxlc3NhbmRyaWHgAQA!16s%2Fg%2F1hc95y6bn?hl=en&entry=ttu&g_ep=EgoyMDI1MDgxMy4wIKXMDSoASAFQAw%3D%3D"
Grimaldi Giorgio,"Corso Virginia Marini, 52, 15121 Alessandria AL, Italy",Alessandria,+39 0131 262175,,,"https://www.google.com/maps/place/Gualco+Simone/@44.9141179,8.5919138,15z/data=!4m10!1m2!2m1!1sAmministratore+di+condominio+Alessandria!3m6!1s0x478774464531ee53:0x2ece591fbcf06c2f!8m2!3d44.9209323!4d8.6142539!15sCihBbW1pbmlzdHJhdG9yZSBkaSBjb25kb21pbmlvIEFsZXNzYW5kcmlhkgEWcHJvcGVydHlfYWRtaW5pc3RyYXRvcqoBigEKCS9tLzAyMHlzNQoJL20vMDJiYl80EAEqICIcYW1taW5pc3RyYXRvcmUgZGkgY29uZG9taW5pbygHMiAQASIc872XkRNkY6kA5HwXf4EJSBqrWR8NHcVJejNISjIsEAIiKGFtbWluaXN0cmF0b3JlIGRpIGNvbmRvbWluaW8gYWxlc3NhbmRyaWHgAQA!16s%2Fg%2F12hlxtvr7?hl=en&entry=ttu&g_ep=EgoyMDI1MDgxMy4wIKXMDSoASAFQAw%3D%3D"
Gualco Simone,"Lungo Tanaro Magenta, 5, 15121 Alessandria AL, Italy",Alessandria,+39 0131 223113,,,"https://www.google.com/maps/place/Burgio+Geom.+Oscar/@44.9141179,8.5919138,15z/data=!4m10!1m2!2m1!1sAmministratore+di+condominio+Alessandria!3m6!1s0x47877423b4742887:0x2363ed9e62f91c7d!8m2!3d44.906661!4d8.6156801!15sCihBbW1pbmlzdHJhdG9yZSBkaSBjb25kb21pbmlvIEFsZXNzYW5kcmlhWioiKGFtbWluaXN0cmF0b3JlIGRpIGNvbmRvbWluaW8gYWxlc3NhbmRyaWGSARtwcm9wZXJ0eV9tYW5hZ2VtZW50X2NvbXBhbnmaASNDaFpEU1VoTk1HOW5TMFZKUTBGblNVUjRiMWxxZVVWQkVBRaoBigEKCS9tLzAyMHlzNQoJL20vMDJiYl80EAEqICIcYW1taW5pc3RyYXRvcmUgZGkgY29uZG9taW5pbygHMiAQASIc872XkRNkY6kA5HwXf4EJSBqrWR8NHcVJejNISjIsEAIiKGFtbWluaXN0cmF0b3JlIGRpIGNvbmRvbWluaW8gYWxlc3NhbmRyaWHgAQD6AQQIABAw!16s%2Fg%2F12j5swjcl?hl=en&entry=ttu&g_ep=EgoyMDI1MDgxMy4wIKXMDSoASAFQAw%3D%3D"
Burgio Geom. Oscar,"Corso XX Settembre, 7, 15121 Alessandria AL, Italy",Alessandria,+39 0131 481595,,,"https://www.google.com/maps/place/Al.Gest+Di+Barni+T.+%26+C.+Sas/@44.9111793,8.6032635,15z/data=!4m10!1m2!2m1!1sAmministratore+di+condominio+Alessandria!3m6!1s0x478774163681328f:0xf01c0fbf299d9ffb!8m2!3d44.9111793!4d8.6212879!15sCihBbW1pbmlzdHJhdG9yZSBkaSBjb25kb21pbmlvIEFsZXNzYW5kcmlhkgEWcHJvcGVydHlfYWRtaW5pc3RyYXRvcqoBigEKCS9tLzAyMHlzNQoJL20vMDJiYl80EAEqICIcYW1taW5pc3RyYXRvcmUgZGkgY29uZG9taW5pbygHMiAQASIc872XkRNkY6kA5HwXf4EJSBqrWR8NHcVJejNISjIsEAIiKGFtbWluaXN0cmF0b3JlIGRpIGNvbmRvbWluaW8gYWxlc3NhbmRyaWHgAQA!16s%2Fg%2F1tdd44dr?hl=en&entry=ttu&g_ep=EgoyMDI1MDgxMy4wIKXMDSoASAFQAw%3D%3D"
Al.Gest Di Barni T. & C. Sas,"C.so Alfonso Lamarmora, 65, 15121 Alessandria AL, Italy",Alessandria,+39 351 923 1279,http://www.lucagastaldi.it/,,"https://www.google.com/maps/place/Gastaldi+Luca/@44.9111793,8.6032635,15z/data=!4m10!1m2!2m1!1sAmministratore+di+condominio+Alessandria!3m6!1s0x4787741f4dbf73a1:0xa5b64b3de6d63a1c!8m2!3d44.9035194!4d8.6184651!15sCihBbW1pbmlzdHJhdG9yZSBkaSBjb25kb21pbmlvIEFsZXNzYW5kcmlhWioiKGFtbWluaXN0cmF0b3JlIGRpIGNvbmRvbWluaW8gYWxlc3NhbmRyaWGSARZwcm9wZXJ0eV9hZG1pbmlzdHJhdG9ymgEjQ2haRFNVaE5NRzluUzBWSlEwRm5TVVJvY0U5WGVHTjNFQUWqAYoBCgkvbS8wMjB5czUKCS9tLzAyYmJfNBABKiAiHGFtbWluaXN0cmF0b3JlIGRpIGNvbmRvbWluaW8oBzIgEAEiHPO9l5ETZGOpAOR8F3-BCUgaq1kfDR3FSXozSEoyLBACIihhbW1pbmlzdHJhdG9yZSBkaSBjb25kb21pbmlvIGFsZXNzYW5kcmlh4AEA-gEECAAQHA!16s%2Fg%2F1hc9x16rc?hl=en&entry=ttu&g_ep=EgoyMDI1MDgxMy4wIKXMDSoASAFQAw%3D%3D"
Gastaldi Luca,"Via Antonio Pacinotti, 34, 15121 Alessandria AL, Italy",Alessandria,+39 351 923 1279,http://www.lucagastaldi.it/,,"https://www.google.com/maps/place/Sanelli+Gianfranco/@44.9133984,8.5922001,15z/data=!4m10!1m2!2m1!1sAmministratore+di+condominio+Alessandria!3m6!1s0x4787743a1c92cd7d:0x7c44b1c9b21e2057!8m2!3d44.9133984!4d8.6102245!15sCihBbW1pbmlzdHJhdG9yZSBkaSBjb25kb21pbmlvIEFsZXNzYW5kcmlhkgEWcHJvcGVydHlfYWRtaW5pc3RyYXRvcqoBigEKCS9tLzAyMHlzNQoJL20vMDJiYl80EAEqICIcYW1taW5pc3RyYXRvcmUgZGkgY29uZG9taW5pbygHMiAQASIc872XkRNkY6kA5HwXf4EJSBqrWR8NHcVJejNISjIsEAIiKGFtbWluaXN0cmF0b3JlIGRpIGNvbmRvbWluaW8gYWxlc3NhbmRyaWHgAQA!16s%2Fg%2F1tslhlwc?hl=en&entry=ttu&g_ep=EgoyMDI1MDgxMy4wIKXMDSoASAFQAw%3D%3D"
Sanelli Gianfranco,"Piazza Giosuè Carducci, 14, 15121 Alessandria AL, Italy",Alessandria,+39 0131 443491,,,"https://www.google.com/maps/place/Grossi+Sergio/@44.9133984,8.5922001,15z/data=!4m10!1m2!2m1!1sAmministratore+di+condominio+Alessandria!3m6!1s0x4787743d3b2755d9:0x9b26e39fe1fd56d7!8m2!3d44.909253!4d8.6171142!15sCihBbW1pbmlzdHJhdG9yZSBkaSBjb25kb21pbmlvIEFsZXNzYW5kcmlhkgEWcHJvcGVydHlfYWRtaW5pc3RyYXRvcqoBigEKCS9tLzAyMHlzNQoJL20vMDJiYl80EAEqICIcYW1taW5pc3RyYXRvcmUgZGkgY29uZG9taW5pbygHMiAQASIc872XkRNkY6kA5HwXf4EJSBqrWR8NHcVJejNISjIsEAIiKGFtbWluaXN0cmF0b3JlIGRpIGNvbmRvbWluaW8gYWxlc3NhbmRyaWHgAQA!16s%2Fg%2F1tgcwypm?hl=en&entry=ttu&g_ep=EgoyMDI1MDgxMy4wIKXMDSoASAFQAw%3D%3D"
Grossi Sergio,"Corso Cento Cannoni, 16, 15121 Alessandria AL, Italy",Alessandria,+39 0131 236039,,,"https://www.google.com/maps/place/Studio+Tecnico+Boccaccio/@44.9133984,8.5922001,15z/data=!4m10!1m2!2m1!1sAmministratore+di+condominio+Alessandria!3m6!1s0x4787743a26b03aa3:0xd83e46eff24ecc04!8m2!3d44.9133773!4d8.6111347!15sCihBbW1pbmlzdHJhdG9yZSBkaSBjb25kb21pbmlvIEFsZXNzYW5kcmlhkgEWcHJvcGVydHlfYWRtaW5pc3RyYXRvcqoBigEKCS9tLzAyMHlzNQoJL20vMDJiYl80EAEqICIcYW1taW5pc3RyYXRvcmUgZGkgY29uZG9taW5pbygHMiAQASIc872XkRNkY6kA5HwXf4EJSBqrWR8NHcVJejNISjIsEAIiKGFtbWluaXN0cmF0b3JlIGRpIGNvbmRvbWluaW8gYWxlc3NhbmRyaWHgAQA!16s%2Fg%2F1tjgz7h2?hl=en&entry=ttu&g_ep=EgoyMDI1MDgxMy4wIKXMDSoASAFQAw%3D%3D"
Studio Tecnico Boccaccio,"Via Piacenza, 66, 15121 Alessandria AL, Italy",Alessandria,+39 345 181 6476,,,"https://www.google.com/maps/place/Studio+Sturla+di+Sturla+Luca/@44.902395,8.5853705,15z/data=!4m10!1m2!2m1!1sAmministratore+di+condominio+Alessandria!3m6!1s0x4787742855b1d381:0x3e900717743bde24!8m2!3d44.902395!4d8.6033949!15sCihBbW1pbmlzdHJhdG9yZSBkaSBjb25kb21pbmlvIEFsZXNzYW5kcmlhWioiKGFtbWluaXN0cmF0b3JlIGRpIGNvbmRvbWluaW8gYWxlc3NhbmRyaWGSARZwcm9wZXJ0eV9hZG1pbmlzdHJhdG9yqgGKAQoJL20vMDIweXM1CgkvbS8wMmJiXzQQASogIhxhbW1pbmlzdHJhdG9yZSBkaSBjb25kb21pbmlvKAcyIBABIhzzvZeRE2RjqQDkfBd_gQlIGqtZHw0dxUl6M0hKMiwQAiIoYW1taW5pc3RyYXRvcmUgZGkgY29uZG9taW5pbyBhbGVzc2FuZHJpYeABAA!16s%2Fg%2F11g7nrp4ff?hl=en&entry=ttu&g_ep=EgoyMDI1MDgxMy4wIKXMDSoASAFQAw%3D%3D"
Ambrosio Amministrazione di Condomini,"Spalto Marengo, 44 Palazzo Pacto, 15121 Alessandria AL, Italy",Alessandria,+39 0131 225762,,,"https://www.google.com/maps/place/Ambrosio+Amministrazione+di+Condomini/@44.9115426,8.6048832,15z/data=!4m10!1m2!2m1!1samministrazione+condomini+Alessandria!3m6!1s0x4787743876dec1db:0xad18a2773271589b!8m2!3d44.916753!4d8.624552!15sCiVhbW1pbmlzdHJhemlvbmUgY29uZG9taW5pIEFsZXNzYW5kcmlhWiciJWFtbWluaXN0cmF6aW9uZSBjb25kb21pbmkgYWxlc3NhbmRyaWGSARtwcm9wZXJ0eV9tYW5hZ2VtZW50X2NvbXBhbnmaASRDaGREU1VoTk1HOW5TMFZPVjNsNGNEWlZNMlZ0T1cxblJSQUKqAYMBCgkvbS8wMjB5czUKCS9tLzAyYmJfNBABKh0iGWFtbWluaXN0cmF6aW9uZSBjb25kb21pbmkoBzIfEAEiG_CGHhjUNGb-3ZqVFGjuIoSCJyyPHTRXoRRgVDIpEAIiJWFtbWluaXN0cmF6aW9uZSBjb25kb21pbmkgYWxlc3NhbmRyaWHgAQD6AQQIABA-!16s%2Fg%2F1tn4x151?hl=en&entry=ttu&g_ep=EgoyMDI1MDgxMy4wIKXMDSoASAFQAw%3D%3D"
Ambrosio Amministrazione di Condomini,"Spalto Marengo, 44 Palazzo Pacto, 15121 Alessandria AL, Italy",Alessandria,+39 0131 225762,,,"https://www.google.com/maps/place/AMMINISTRAZIONI+CONDOMINIALI+LOMBARDI+PAOLO/@44.9115426,8.6048832,15z/data=!4m10!1m2!2m1!1samministrazione+condomini+Alessandria!3m6!1s0x478775638c2d72d9:0x2dd81573c14f1901!8m2!3d44.913839!4d8.620546!15sCiVhbW1pbmlzdHJhemlvbmUgY29uZG9taW5pIEFsZXNzYW5kcmlhWiciJWFtbWluaXN0cmF6aW9uZSBjb25kb21pbmkgYWxlc3NhbmRyaWGSARZwcm9wZXJ0eV9hZG1pbmlzdHJhdG9ymgEkQ2hkRFNVaE5NRzluUzBWSlEwRm5TVU5YTjAxUFZITjNSUkFCqgGDAQoJL20vMDIweXM1CgkvbS8wMmJiXzQQASodIhlhbW1pbmlzdHJhemlvbmUgY29uZG9taW5pKAcyHxABIhvwhh4Y1DRm_t2alRRo7iKEgicsjx00V6EUYFQyKRACIiVhbW1pbmlzdHJhemlvbmUgY29uZG9taW5pIGFsZXNzYW5kcmlh4AEA-gEECAAQHA!16s%2Fg%2F11ghs961vl?hl=en&entry=ttu&g_ep=EgoyMDI1MDgxMy4wIKXMDSoASAFQAw%3D%3D"
AMMINISTRAZIONI CONDOMINIALI LOMBARDI PAOLO,"Via Gerolamo Savonarola, 84, 15121 Alessandria AL, Italy",Alessandria,+39 0131 195 0049,,,"https://www.google.com/maps/place/Cerrano+Enrica+Amministrazione+Condominiali/@44.9115426,8.6048832,15z/data=!4m10!1m2!2m1!1samministrazione+condomini+Alessandria!3m6!1s0x47877581c25735a5:0x496b9310929fa052!8m2!3d44.9060065!4d8.6244623!15sCiVhbW1pbmlzdHJhemlvbmUgY29uZG9taW5pIEFsZXNzYW5kcmlhWiciJWFtbWluaXN0cmF6aW9uZSBjb25kb21pbmkgYWxlc3NhbmRyaWGSARtwcm9wZXJ0eV9tYW5hZ2VtZW50X2NvbXBhbnmaASNDaFpEU1VoTk1HOW5TMFZKUTBGblRVTlplWEIyWVVkUkVBRaoBgwEKCS9tLzAyMHlzNQoJL20vMDJiYl80EAEqHSIZYW1taW5pc3RyYXppb25lIGNvbmRvbWluaSgHMh8QASIb8IYeGNQ0Zv7dmpUUaO4ihIInLI8dNFehFGBUMikQAiIlYW1taW5pc3RyYXppb25lIGNvbmRvbWluaSBhbGVzc2FuZHJpYeABAPoBBAgAECw!16s%2Fg%2F11pv77412t?hl=en&entry=ttu&g_ep=EgoyMDI1MDgxMy4wIKXMDSoASAFQAw%3D%3D"
Cerrano Enrica Amministrazione Condominiali,"Via Silvio Pellico, 1/R, 15121 Alessandria AL, Italy",Alessandria,+39 0131 197 8140,,,"https://www.google.com/maps/place/Studio+Geom.+Cirillo+Amministrazioni+Condominiali/@44.9098175,8.5961957,15z/data=!4m10!1m2!2m1!1samministrazione+condomini+Alessandria!3m6!1s0x4787743ca23adee5:0x3cea3ace9136e1a3!8m2!3d44.9098175!4d8.6142201!15sCiVhbW1pbmlzdHJhemlvbmUgY29uZG9taW5pIEFsZXNzYW5kcmlhkgEWcHJvcGVydHlfYWRtaW5pc3RyYXRvcqoBgwEKCS9tLzAyMHlzNQoJL20vMDJiYl80EAEqHSIZYW1taW5pc3RyYXppb25lIGNvbmRvbWluaSgHMh8QASIb8IYeGNQ0Zv7dmpUUaO4ihIInLI8dNFehFGBUMikQAiIlYW1taW5pc3RyYXppb25lIGNvbmRvbWluaSBhbGVzc2FuZHJpYeABAA!16s%2Fg%2F11b6hv_v38?hl=en&entry=ttu&g_ep=EgoyMDI1MDgxMy4wIKXMDSoASAFQAw%3D%3D"
Studio Geom. Cirillo Amministrazioni Condominiali,"Via Giorgio Merula, 8, 15121 Alessandria AL, Italy",Alessandria,+39 0131 227175,http://stgeometracirillo.myadj.it/,,"https://www.google.com/maps/place/Amministrazione+Condomini+DELLA+VALLE+Paolo/@44.9021538,8.5874096,15z/data=!4m10!1m2!2m1!1samministrazione+condomini+Alessandria!3m6!1s0x478774287c5cc513:0x4f863d228888030e!8m2!3d44.9021538!4d8.605434!15sCiVhbW1pbmlzdHJhemlvbmUgY29uZG9taW5pIEFsZXNzYW5kcmlhkgEWcHJvcGVydHlfYWRtaW5pc3RyYXRvcqoBgwEKCS9tLzAyMHlzNQoJL20vMDJiYl80EAEqHSIZYW1taW5pc3RyYXppb25lIGNvbmRvbWluaSgHMh8QASIb8IYeGNQ0Zv7dmpUUaO4ihIInLI8dNFehFGBUMikQAiIlYW1taW5pc3RyYXppb25lIGNvbmRvbWluaSBhbGVzc2FuZHJpYeABAA!16s%2Fg%2F11g6xs8thp?hl=en&entry=ttu&g_ep=EgoyMDI1MDgxMy4wIKXMDSoASAFQAw%3D%3D"
Amministrazione Condomini DELLA VALLE Paolo,"Via Mario Maggioli, 23, 15121 Alessandria AL, Italy",Alessandria,+39 327 247 6649,,,"https://www.google.com/maps/place/Tassistro+Adriana/@44.9132799,8.6075187,15z/data=!4m10!1m2!2m1!1samministrazione+condomini+Alessandria!3m6!1s0x47877414102609cd:0x4c41b24b2ac662e3!8m2!3d44.9132799!4d8.6255431!15sCiVhbW1pbmlzdHJhemlvbmUgY29uZG9taW5pIEFsZXNzYW5kcmlhWiciJWFtbWluaXN0cmF6aW9uZSBjb25kb21pbmkgYWxlc3NhbmRyaWGSARZwcm9wZXJ0eV9hZG1pbmlzdHJhdG9ymgEjQ2haRFNVaE5NRzluUzBWSlEwRm5TVVEyTFdGWU5XWkJFQUWqAYMBCgkvbS8wMjB5czUKCS9tLzAyYmJfNBABKh0iGWFtbWluaXN0cmF6aW9uZSBjb25kb21pbmkoBzIfEAEiG_CGHhjUNGb-3ZqVFGjuIoSCJyyPHTRXoRRgVDIpEAIiJWFtbWluaXN0cmF6aW9uZSBjb25kb21pbmkgYWxlc3NhbmRyaWHgAQD6AQQIABAc!16s%2Fg%2F1w3w1yjl?hl=en&entry=ttu&g_ep=EgoyMDI1MDgxMy4wIKXMDSoASAFQAw%3D%3D"
Tassistro Adriana,"Via Giorgio Solero, 18, 15121 Alessandria AL, Italy",Alessandria,+39 0131 266415,,,"https://www.google.com/maps/place/Gastaldi+Lorenzo+S.A.S./@44.9123328,8.5965999,15z/data=!4m10!1m2!2m1!1samministrazione+condomini+Alessandria!3m6!1s0x4787743bf580c413:0x7f1f448361aea2a6!8m2!3d44.9123328!4d8.6146243!15sCiVhbW1pbmlzdHJhemlvbmUgY29uZG9taW5pIEFsZXNzYW5kcmlhWiciJWFtbWluaXN0cmF6aW9uZSBjb25kb21pbmkgYWxlc3NhbmRyaWGSARZwcm9wZXJ0eV9hZG1pbmlzdHJhdG9ymgEjQ2haRFNVaE5NRzluUzBWSlEwRm5TVVJvY0ZCWFEyVm5FQUWqAYMBCgkvbS8wMjB5czUKCS9tLzAyYmJfNBABKh0iGWFtbWluaXN0cmF6aW9uZSBjb25kb21pbmkoBzIfEAEiG_CGHhjUNGb-3ZqVFGjuIoSCJyyPHTRXoRRgVDIpEAIiJWFtbWluaXN0cmF6aW9uZSBjb25kb21pbmkgYWxlc3NhbmRyaWHgAQD6AQQIABAQ!16s%2Fg%2F1tdgt8bl?hl=en&entry=ttu&g_ep=EgoyMDI1MDgxMy4wIKXMDSoASAFQAw%3D%3D"
Gastaldi Lorenzo S.A.S.,"Via S. Giacomo della Vittoria, 25, 15121 Alessandria AL, Italy",Alessandria,+39 0131 441465,,,"https://www.google.com/maps/place/Studio+G.A.I.A.+Sas+Di+Signorini+Mario+%26+C/@44.9137429,8.6089465,15z/data=!4m10!1m2!2m1!1samministrazione+condomini+Alessandria!3m6!1s0x478774138de9e0e3:0xb947d1596518f02c!8m2!3d44.9137429!4d8.6269709!15sCiVhbW1pbmlzdHJhemlvbmUgY29uZG9taW5pIEFsZXNzYW5kcmlhWiciJWFtbWluaXN0cmF6aW9uZSBjb25kb21pbmkgYWxlc3NhbmRyaWGSARZwcm9wZXJ0eV9hZG1pbmlzdHJhdG9ymgEjQ2haRFNVaE5NRzluUzBWSlEwRm5TVVF0T1UwdFMweEJFQUWqAYMBCgkvbS8wMjB5czUKCS9tLzAyYmJfNBABKh0iGWFtbWluaXN0cmF6aW9uZSBjb25kb21pbmkoBzIfEAEiG_CGHhjUNGb-3ZqVFGjuIoSCJyyPHTRXoRRgVDIpEAIiJWFtbWluaXN0cmF6aW9uZSBjb25kb21pbmkgYWxlc3NhbmRyaWHgAQD6AQQIABA5!16s%2Fg%2F1thcr6mq?hl=en&entry=ttu&g_ep=EgoyMDI1MDgxMy4wIKXMDSoASAFQAw%3D%3D"
Studio G.A.I.A. Sas Di Signorini Mario & C,"Spalto Marengo, 85, 15121 Alessandria AL, Italy",Alessandria,+39 0131 261740,,,"https://www.google.com/maps/place/Gualco+Simone/@44.9209323,8.5962295,15z/data=!4m10!1m2!2m1!1samministrazione+condomini+Alessandria!3m6!1s0x478774464531ee53:0x2ece591fbcf06c2f!8m2!3d44.9209323!4d8.6142539!15sCiVhbW1pbmlzdHJhemlvbmUgY29uZG9taW5pIEFsZXNzYW5kcmlhkgEWcHJvcGVydHlfYWRtaW5pc3RyYXRvcqoBgwEKCS9tLzAyMHlzNQoJL20vMDJiYl80EAEqHSIZYW1taW5pc3RyYXppb25lIGNvbmRvbWluaSgHMh8QASIb8IYeGNQ0Zv7dmpUUaO4ihIInLI8dNFehFGBUMikQAiIlYW1taW5pc3RyYXppb25lIGNvbmRvbWluaSBhbGVzc2FuZHJpYeABAA!16s%2Fg%2F12hlxtvr7?hl=en&entry=ttu&g_ep=EgoyMDI1MDgxMy4wIKXMDSoASAFQAw%3D%3D"
Gualco Simone,"Lungo Tanaro Magenta, 5, 15121 Alessandria AL, Italy",Alessandria,+39 0131 223113,,,"https://www.google.com/maps/place/Grimaldi+Giorgio/@44.9209323,8.5962295,15z/data=!4m10!1m2!2m1!1samministrazione+condomini+Alessandria!3m6!1s0x478774112b0a2bd1:0xa174c1864ea765dd!8m2!3d44.9141179!4d8.6099382!15sCiVhbW1pbmlzdHJhemlvbmUgY29uZG9taW5pIEFsZXNzYW5kcmlhkgEWcHJvcGVydHlfYWRtaW5pc3RyYXRvcqoBgwEKCS9tLzAyMHlzNQoJL20vMDJiYl80EAEqHSIZYW1taW5pc3RyYXppb25lIGNvbmRvbWluaSgHMh8QASIb8IYeGNQ0Zv7dmpUUaO4ihIInLI8dNFehFGBUMikQAiIlYW1taW5pc3RyYXppb25lIGNvbmRvbWluaSBhbGVzc2FuZHJpYeABAA!16s%2Fg%2F1hc95y6bn?hl=en&entry=ttu&g_ep=EgoyMDI1MDgxMy4wIKXMDSoASAFQAw%3D%3D"
Gastaldi Luca,"Via Antonio Pacinotti, 34, 15121 Alessandria AL, Italy",Alessandria,+39 351 923 1279,http://www.lucagastaldi.it/,,"https://www.google.com/maps/place/Gastaldi+Luca/@44.9035194,8.6004407,15z/data=!4m10!1m2!2m1!1samministrazione+condomini+Alessandria!3m6!1s0x4787741f4dbf73a1:0xa5b64b3de6d63a1c!8m2!3d44.9035194!4d8.6184651!15sCiVhbW1pbmlzdHJhemlvbmUgY29uZG9taW5pIEFsZXNzYW5kcmlhWiciJWFtbWluaXN0cmF6aW9uZSBjb25kb21pbmkgYWxlc3NhbmRyaWGSARZwcm9wZXJ0eV9hZG1pbmlzdHJhdG9ymgEjQ2haRFNVaE5NRzluUzBWSlEwRm5TVVJvY0U5WGVHTjNFQUWqAYMBCgkvbS8wMjB5czUKCS9tLzAyYmJfNBABKh0iGWFtbWluaXN0cmF6aW9uZSBjb25kb21pbmkoBzIfEAEiG_CGHhjUNGb-3ZqVFGjuIoSCJyyPHTRXoRRgVDIpEAIiJWFtbWluaXN0cmF6aW9uZSBjb25kb21pbmkgYWxlc3NhbmRyaWHgAQD6AQQIABAc!16s%2Fg%2F1hc9x16rc?hl=en&entry=ttu&g_ep=EgoyMDI1MDgxMy4wIKXMDSoASAFQAw%3D%3D"
Gastaldi Luca,"Via Antonio Pacinotti, 34, 15121 Alessandria AL, Italy",Alessandria,+39 351 923 1279,http://www.lucagastaldi.it/,,"https://www.google.com/maps/place/Studio+Tecnico+Boccaccio/@44.9133773,8.5931103,15z/data=!4m10!1m2!2m1!1samministrazione+condomini+Alessandria!3m6!1s0x4787743a26b03aa3:0xd83e46eff24ecc04!8m2!3d44.9133773!4d8.6111347!15sCiVhbW1pbmlzdHJhemlvbmUgY29uZG9taW5pIEFsZXNzYW5kcmlhkgEWcHJvcGVydHlfYWRtaW5pc3RyYXRvcqoBgwEKCS9tLzAyMHlzNQoJL20vMDJiYl80EAEqHSIZYW1taW5pc3RyYXppb25lIGNvbmRvbWluaSgHMh8QASIb8IYeGNQ0Zv7dmpUUaO4ihIInLI8dNFehFGBUMikQAiIlYW1taW5pc3RyYXppb25lIGNvbmRvbWluaSBhbGVzc2FuZHJpYeABAA!16s%2Fg%2F1tjgz7h2?hl=en&entry=ttu&g_ep=EgoyMDI1MDgxMy4wIKXMDSoASAFQAw%3D%3D"
Studio Tecnico Boccaccio,"Via Piacenza, 66, 15121 Alessandria AL, Italy",Alessandria,+39 345 181 6476,,,"https://www.google.com/maps/place/Grossi+Sergio/@44.9133773,8.5931103,15z/data=!4m10!1m2!2m1!1samministrazione+condomini+Alessandria!3m6!1s0x4787743d3b2755d9:0x9b26e39fe1fd56d7!8m2!3d44.909253!4d8.6171142!15sCiVhbW1pbmlzdHJhemlvbmUgY29uZG9taW5pIEFsZXNzYW5kcmlhkgEWcHJvcGVydHlfYWRtaW5pc3RyYXRvcqoBgwEKCS9tLzAyMHlzNQoJL20vMDJiYl80EAEqHSIZYW1taW5pc3RyYXppb25lIGNvbmRvbWluaSgHMh8QASIb8IYeGNQ0Zv7dmpUUaO4ihIInLI8dNFehFGBUMikQAiIlYW1taW5pc3RyYXppb25lIGNvbmRvbWluaSBhbGVzc2FuZHJpYeABAA!16s%2Fg%2F1tgcwypm?hl=en&entry=ttu&g_ep=EgoyMDI1MDgxMy4wIKXMDSoASAFQAw%3D%3D"
Grossi Sergio,"Corso Cento Cannoni, 16, 15121 Alessandria AL, Italy",Alessandria,+39 0131 236039,,,"https://www.google.com/maps/place/Sanelli+Gianfranco/@44.9133773,8.5931103,15z/data=!4m10!1m2!2m1!1samministrazione+condomini+Alessandria!3m6!1s0x4787743a1c92cd7d:0x7c44b1c9b21e2057!8m2!3d44.9133984!4d8.6102245!15sCiVhbW1pbmlzdHJhemlvbmUgY29uZG9taW5pIEFsZXNzYW5kcmlhkgEWcHJvcGVydHlfYWRtaW5pc3RyYXRvcqoBgwEKCS9tLzAyMHlzNQoJL20vMDJiYl80EAEqHSIZYW1taW5pc3RyYXppb25lIGNvbmRvbWluaSgHMh8QASIb8IYeGNQ0Zv7dmpUUaO4ihIInLI8dNFehFGBUMikQAiIlYW1taW5pc3RyYXppb25lIGNvbmRvbWluaSBhbGVzc2FuZHJpYeABAA!16s%2Fg%2F1tslhlwc?hl=en&entry=ttu&g_ep=EgoyMDI1MDgxMy4wIKXMDSoASAFQAw%3D%3D"
Sanelli Gianfranco,"Piazza Giosuè Carducci, 14, 15121 Alessandria AL, Italy",Alessandria,+39 0131 443491,,,"https://www.google.com/maps/place/Al.Gest+Di+Barni+T.+%26+C.+Sas/@44.9111793,8.6032635,15z/data=!4m10!1m2!2m1!1samministrazione+condomini+Alessandria!3m6!1s0x478774163681328f:0xf01c0fbf299d9ffb!8m2!3d44.9111793!4d8.6212879!15sCiVhbW1pbmlzdHJhemlvbmUgY29uZG9taW5pIEFsZXNzYW5kcmlhkgEWcHJvcGVydHlfYWRtaW5pc3RyYXRvcqoBgwEKCS9tLzAyMHlzNQoJL20vMDJiYl80EAEqHSIZYW1taW5pc3RyYXppb25lIGNvbmRvbWluaSgHMh8QASIb8IYeGNQ0Zv7dmpUUaO4ihIInLI8dNFehFGBUMikQAiIlYW1taW5pc3RyYXppb25lIGNvbmRvbWluaSBhbGVzc2FuZHJpYeABAA!16s%2Fg%2F1tdd44dr?hl=en&entry=ttu&g_ep=EgoyMDI1MDgxMy4wIKXMDSoASAFQAw%3D%3D"
Al.Gest Di Barni T. & C. Sas,"C.so Alfonso Lamarmora, 65, 15121 Alessandria AL, Italy",Alessandria,+39 0131 265313,,,"https://www.google.com/maps/place/Studio+Sturla+di+Sturla+Luca/@44.902395,8.5853705,15z/data=!4m10!1m2!2m1!1samministrazione+condomini+Alessandria!3m6!1s0x4787742855b1d381:0x3e900717743bde24!8m2!3d44.902395!4d8.6033949!15sCiVhbW1pbmlzdHJhemlvbmUgY29uZG9taW5pIEFsZXNzYW5kcmlhWiciJWFtbWluaXN0cmF6aW9uZSBjb25kb21pbmkgYWxlc3NhbmRyaWGSARZwcm9wZXJ0eV9hZG1pbmlzdHJhdG9yqgGDAQoJL20vMDIweXM1CgkvbS8wMmJiXzQQASodIhlhbW1pbmlzdHJhemlvbmUgY29uZG9taW5pKAcyHxABIhvwhh4Y1DRm_t2alRRo7iKEgicsjx00V6EUYFQyKRACIiVhbW1pbmlzdHJhemlvbmUgY29uZG9taW5pIGFsZXNzYW5kcmlh4AEA!16s%2Fg%2F11g7nrp4ff?hl=en&entry=ttu&g_ep=EgoyMDI1MDgxMy4wIKXMDSoASAFQAw%3D%3D"
Studio Geom. Cirillo Amministrazioni Condominiali,"Via Giorgio Merula, 8, 15121 Alessandria AL, Italy",Alessandria,+39 0131 227175,http://stgeometracirillo.myadj.it/,,"https://www.google.com/maps/place/Studio+Geom.+Cirillo+Amministrazioni+Condominiali/@44.9098175,8.5961957,15z/data=!4m10!1m2!2m1!1samministrazione+condominiale+Alessandria!3m6!1s0x4787743ca23adee5:0x3cea3ace9136e1a3!8m2!3d44.9098175!4d8.6142201!15sCihhbW1pbmlzdHJhemlvbmUgY29uZG9taW5pYWxlIEFsZXNzYW5kcmlhkgEWcHJvcGVydHlfYWRtaW5pc3RyYXRvcqoBiQEKCS9tLzAyMHlzNQoJL20vMDJiYl80EAEqICIcYW1taW5pc3RyYXppb25lIGNvbmRvbWluaWFsZSgHMh8QASIb8IYlttIGgqxnlIGR1-imI0WCT1EQaZBf5XNWMiwQAiIoYW1taW5pc3RyYXppb25lIGNvbmRvbWluaWFsZSBhbGVzc2FuZHJpYeABAA!16s%2Fg%2F11b6hv_v38?hl=en&entry=ttu&g_ep=EgoyMDI1MDgxMy4wIKXMDSoASAFQAw%3D%3D"
Studio Geom. Cirillo Amministrazioni Condominiali,"Via Giorgio Merula, 8, 15121 Alessandria AL, Italy",Alessandria,+39 0131 227175,http://stgeometracirillo.myadj.it/,,"https://www.google.com/maps/place/AMMINISTRAZIONI+CONDOMINIALI+LOMBARDI+PAOLO/@44.9098175,8.5961957,15z/data=!4m10!1m2!2m1!1samministrazione+condominiale+Alessandria!3m6!1s0x478775638c2d72d9:0x2dd81573c14f1901!8m2!3d44.913839!4d8.620546!15sCihhbW1pbmlzdHJhemlvbmUgY29uZG9taW5pYWxlIEFsZXNzYW5kcmlhWioiKGFtbWluaXN0cmF6aW9uZSBjb25kb21pbmlhbGUgYWxlc3NhbmRyaWGSARZwcm9wZXJ0eV9hZG1pbmlzdHJhdG9ymgEkQ2hkRFNVaE5NRzluUzBWSlEwRm5TVU5YTjAxUFZITjNSUkFCqgGJAQoJL20vMDIweXM1CgkvbS8wMmJiXzQQASogIhxhbW1pbmlzdHJhemlvbmUgY29uZG9taW5pYWxlKAcyHxABIhvwhiW20gaCrGeUgZHX6KYjRYJPURBpkF_lc1YyLBACIihhbW1pbmlzdHJhemlvbmUgY29uZG9taW5pYWxlIGFsZXNzYW5kcmlh4AEA-gEECAAQHA!16s%2Fg%2F11ghs961vl?hl=en&entry=ttu&g_ep=EgoyMDI1MDgxMy4wIKXMDSoASAFQAw%3D%3D"
AMMINISTRAZIONI CONDOMINIALI LOMBARDI PAOLO,"Via Gerolamo Savonarola, 84, 15121 Alessandria AL, Italy",Alessandria,+39 0131 195 0049,,,"https://www.google.com/maps/place/Ambrosio+Amministrazione+di+Condomini/@44.916753,8.6065276,15z/data=!4m10!1m2!2m1!1samministrazione+condominiale+Alessandria!3m6!1s0x4787743876dec1db:0xad18a2773271589b!8m2!3d44.916753!4d8.624552!15sCihhbW1pbmlzdHJhemlvbmUgY29uZG9taW5pYWxlIEFsZXNzYW5kcmlhWioiKGFtbWluaXN0cmF6aW9uZSBjb25kb21pbmlhbGUgYWxlc3NhbmRyaWGSARtwcm9wZXJ0eV9tYW5hZ2VtZW50X2NvbXBhbnmaASRDaGREU1VoTk1HOW5TMFZPVjNsNGNEWlZNMlZ0T1cxblJSQUKqAYkBCgkvbS8wMjB5czUKCS9tLzAyYmJfNBABKiAiHGFtbWluaXN0cmF6aW9uZSBjb25kb21pbmlhbGUoBzIfEAEiG_CGJbbSBoKsZ5SBkdfopiNFgk9REGmQX-VzVjIsEAIiKGFtbWluaXN0cmF6aW9uZSBjb25kb21pbmlhbGUgYWxlc3NhbmRyaWHgAQD6AQQIABA-!16s%2Fg%2F1tn4x151?hl=en&entry=ttu&g_ep=EgoyMDI1MDgxMy4wIKXMDSoASAFQAw%3D%3D"
Ambrosio Amministrazione di Condomini,"Spalto Marengo, 44 Palazzo Pacto, 15121 Alessandria AL, Italy",Alessandria,+39 0131 225762,,,"https://www.google.com/maps/place/Cerrano+Enrica+Amministrazione+Condominiali/@44.916753,8.6065276,15z/data=!4m10!1m2!2m1!1samministrazione+condominiale+Alessandria!3m6!1s0x47877581c25735a5:0x496b9310929fa052!8m2!3d44.9060065!4d8.6244623!15sCihhbW1pbmlzdHJhemlvbmUgY29uZG9taW5pYWxlIEFsZXNzYW5kcmlhWioiKGFtbWluaXN0cmF6aW9uZSBjb25kb21pbmlhbGUgYWxlc3NhbmRyaWGSARtwcm9wZXJ0eV9tYW5hZ2VtZW50X2NvbXBhbnmaASNDaFpEU1VoTk1HOW5TMFZKUTBGblRVTlplWEIyWVVkUkVBRaoBiQEKCS9tLzAyMHlzNQoJL20vMDJiYl80EAEqICIcYW1taW5pc3RyYXppb25lIGNvbmRvbWluaWFsZSgHMh8QASIb8IYlttIGgqxnlIGR1-imI0WCT1EQaZBf5XNWMiwQAiIoYW1taW5pc3RyYXppb25lIGNvbmRvbWluaWFsZSBhbGVzc2FuZHJpYeABAPoBBAgAECw!16s%2Fg%2F11pv77412t?hl=en&entry=ttu&g_ep=EgoyMDI1MDgxMy4wIKXMDSoASAFQAw%3D%3D"
Cerrano Enrica Amministrazione Condominiali,"Via Silvio Pellico, 1/R, 15121 Alessandria AL, Italy",Alessandria,+39 0131 197 8140,,,"https://www.google.com/maps/place/Porraro+Luigi+-+Domeus+Amministrazioni+Immobiliari/@44.91707,8.5981056,15z/data=!4m10!1m2!2m1!1samministrazione+condominiale+Alessandria!3m6!1s0x4787743f4ca0b8e1:0x415447a239668b9d!8m2!3d44.91707!4d8.61613!15sCihhbW1pbmlzdHJhemlvbmUgY29uZG9taW5pYWxlIEFsZXNzYW5kcmlhWioiKGFtbWluaXN0cmF6aW9uZSBjb25kb21pbmlhbGUgYWxlc3NhbmRyaWGSARZwcm9wZXJ0eV9hZG1pbmlzdHJhdG9yqgGJAQoJL20vMDIweXM1CgkvbS8wMmJiXzQQASogIhxhbW1pbmlzdHJhemlvbmUgY29uZG9taW5pYWxlKAcyHxABIhvwhiW20gaCrGeUgZHX6KYjRYJPURBpkF_lc1YyLBACIihhbW1pbmlzdHJhemlvbmUgY29uZG9taW5pYWxlIGFsZXNzYW5kcmlh4AEA!16s%2Fg%2F1hc4hnkt2?hl=en&entry=ttu&g_ep=EgoyMDI1MDgxMy4wIKXMDSoASAFQAw%3D%3D"
Porraro Luigi - Domeus Amministrazioni Immobiliari,"V.Verona, 102, 15121 Alessandria AL, Italy",Alessandria,+39 347 315 6462,,,"https://www.google.com/maps/place/Studio+G.A.I.A.+Sas+Di+Signorini+Mario+%26+C/@44.9137429,8.6089465,15z/data=!4m10!1m2!2m1!1samministrazione+condominiale+Alessandria!3m6!1s0x478774138de9e0e3:0xb947d1596518f02c!8m2!3d44.9137429!4d8.6269709!15sCihhbW1pbmlzdHJhemlvbmUgY29uZG9taW5pYWxlIEFsZXNzYW5kcmlhWioiKGFtbWluaXN0cmF6aW9uZSBjb25kb21pbmlhbGUgYWxlc3NhbmRyaWGSARZwcm9wZXJ0eV9hZG1pbmlzdHJhdG9ymgEjQ2haRFNVaE5NRzluUzBWSlEwRm5TVVF0T1UwdFMweEJFQUWqAYkBCgkvbS8wMjB5czUKCS9tLzAyYmJfNBABKiAiHGFtbWluaXN0cmF6aW9uZSBjb25kb21pbmlhbGUoBzIfEAEiG_CGJbbSBoKsZ5SBkdfopiNFgk9REGmQX-VzVjIsEAIiKGFtbWluaXN0cmF6aW9uZSBjb25kb21pbmlhbGUgYWxlc3NhbmRyaWHgAQD6AQQIABA5!16s%2Fg%2F1thcr6mq?hl=en&entry=ttu&g_ep=EgoyMDI1MDgxMy4wIKXMDSoASAFQAw%3D%3D"
Studio G.A.I.A. Sas Di Signorini Mario & C,"Spalto Marengo, 85, 15121 Alessandria AL, Italy",Alessandria,+39 0131 261740,,,"https://www.google.com/maps/place/Amministrazione+Condomini+DELLA+VALLE+Paolo/@44.9021538,8.5874096,15z/data=!4m10!1m2!2m1!1samministrazione+condominiale+Alessandria!3m6!1s0x478774287c5cc513:0x4f863d228888030e!8m2!3d44.9021538!4d8.605434!15sCihhbW1pbmlzdHJhemlvbmUgY29uZG9taW5pYWxlIEFsZXNzYW5kcmlhkgEWcHJvcGVydHlfYWRtaW5pc3RyYXRvcqoBiQEKCS9tLzAyMHlzNQoJL20vMDJiYl80EAEqICIcYW1taW5pc3RyYXppb25lIGNvbmRvbWluaWFsZSgHMh8QASIb8IYlttIGgqxnlIGR1-imI0WCT1EQaZBf5XNWMiwQAiIoYW1taW5pc3RyYXppb25lIGNvbmRvbWluaWFsZSBhbGVzc2FuZHJpYeABAA!16s%2Fg%2F11g6xs8thp?hl=en&entry=ttu&g_ep=EgoyMDI1MDgxMy4wIKXMDSoASAFQAw%3D%3D"
Amministrazione Condomini DELLA VALLE Paolo,"Via Mario Maggioli, 23, 15121 Alessandria AL, Italy",Alessandria,+39 327 247 6649,http://www.tuocondominio.eu/,,"https://www.google.com/maps/place/Gastaldi+Lorenzo+S.A.S./@44.9123328,8.5965999,15z/data=!4m10!1m2!2m1!1samministrazione+condominiale+Alessandria!3m6!1s0x4787743bf580c413:0x7f1f448361aea2a6!8m2!3d44.9123328!4d8.6146243!15sCihhbW1pbmlzdHJhemlvbmUgY29uZG9taW5pYWxlIEFsZXNzYW5kcmlhWioiKGFtbWluaXN0cmF6aW9uZSBjb25kb21pbmlhbGUgYWxlc3NhbmRyaWGSARZwcm9wZXJ0eV9hZG1pbmlzdHJhdG9ymgEjQ2haRFNVaE5NRzluUzBWSlEwRm5TVVJvY0ZCWFEyVm5FQUWqAYkBCgkvbS8wMjB5czUKCS9tLzAyYmJfNBABKiAiHGFtbWluaXN0cmF6aW9uZSBjb25kb21pbmlhbGUoBzIfEAEiG_CGJbbSBoKsZ5SBkdfopiNFgk9REGmQX-VzVjIsEAIiKGFtbWluaXN0cmF6aW9uZSBjb25kb21pbmlhbGUgYWxlc3NhbmRyaWHgAQD6AQQIABAQ!16s%2Fg%2F1tdgt8bl?hl=en&entry=ttu&g_ep=EgoyMDI1MDgxMy4wIKXMDSoASAFQAw%3D%3D"
Gastaldi Lorenzo S.A.S.,"Via S. Giacomo della Vittoria, 25, 15121 Alessandria AL, Italy",Alessandria,+39 0131 441465,,,"https://www.google.com/maps/place/Grimaldi+Giorgio/@44.9123328,8.5965999,15z/data=!4m10!1m2!2m1!1samministrazione+condominiale+Alessandria!3m6!1s0x478774112b0a2bd1:0xa174c1864ea765dd!8m2!3d44.9141179!4d8.6099382!15sCihhbW1pbmlzdHJhemlvbmUgY29uZG9taW5pYWxlIEFsZXNzYW5kcmlhkgEWcHJvcGVydHlfYWRtaW5pc3RyYXRvcqoBiQEKCS9tLzAyMHlzNQoJL20vMDJiYl80EAEqICIcYW1taW5pc3RyYXppb25lIGNvbmRvbWluaWFsZSgHMh8QASIb8IYlttIGgqxnlIGR1-imI0WCT1EQaZBf5XNWMiwQAiIoYW1taW5pc3RyYXppb25lIGNvbmRvbWluaWFsZSBhbGVzc2FuZHJpYeABAA!16s%2Fg%2F1hc95y6bn?hl=en&entry=ttu&g_ep=EgoyMDI1MDgxMy4wIKXMDSoASAFQAw%3D%3D"
Grimaldi Giorgio,"Corso Virginia Marini, 52, 15121 Alessandria AL, Italy",Alessandria,+39 0131 262175,,,"https://www.google.com/maps/place/Gualco+Simone/@44.9123328,8.5965999,15z/data=!4m10!1m2!2m1!1samministrazione+condominiale+Alessandria!3m6!1s0x478774464531ee53:0x2ece591fbcf06c2f!8m2!3d44.9209323!4d8.6142539!15sCihhbW1pbmlzdHJhemlvbmUgY29uZG9taW5pYWxlIEFsZXNzYW5kcmlhkgEWcHJvcGVydHlfYWRtaW5pc3RyYXRvcqoBiQEKCS9tLzAyMHlzNQoJL20vMDJiYl80EAEqICIcYW1taW5pc3RyYXppb25lIGNvbmRvbWluaWFsZSgHMh8QASIb8IYlttIGgqxnlIGR1-imI0WCT1EQaZBf5XNWMiwQAiIoYW1taW5pc3RyYXppb25lIGNvbmRvbWluaWFsZSBhbGVzc2FuZHJpYeABAA!16s%2Fg%2F12hlxtvr7?hl=en&entry=ttu&g_ep=EgoyMDI1MDgxMy4wIKXMDSoASAFQAw%3D%3D"
Gualco Simone,"Lungo Tanaro Magenta, 5, 15121 Alessandria AL, Italy",Alessandria,+39 0131 223113,,,"https://www.google.com/maps/place/Gastaldi+Luca/@44.9123328,8.5965999,15z/data=!4m10!1m2!2m1!1samministrazione+condominiale+Alessandria!3m6!1s0x4787741f4dbf73a1:0xa5b64b3de6d63a1c!8m2!3d44.9035194!4d8.6184651!15sCihhbW1pbmlzdHJhemlvbmUgY29uZG9taW5pYWxlIEFsZXNzYW5kcmlhWioiKGFtbWluaXN0cmF6aW9uZSBjb25kb21pbmlhbGUgYWxlc3NhbmRyaWGSARZwcm9wZXJ0eV9hZG1pbmlzdHJhdG9ymgEjQ2haRFNVaE5NRzluUzBWSlEwRm5TVVJvY0U5WGVHTjNFQUWqAYkBCgkvbS8wMjB5czUKCS9tLzAyYmJfNBABKiAiHGFtbWluaXN0cmF6aW9uZSBjb25kb21pbmlhbGUoBzIfEAEiG_CGJbbSBoKsZ5SBkdfopiNFgk9REGmQX-VzVjIsEAIiKGFtbWluaXN0cmF6aW9uZSBjb25kb21pbmlhbGUgYWxlc3NhbmRyaWHgAQD6AQQIABAc!16s%2Fg%2F1hc9x16rc?hl=en&entry=ttu&g_ep=EgoyMDI1MDgxMy4wIKXMDSoASAFQAw%3D%3D"
Gastaldi Luca,"Via Antonio Pacinotti, 34, 15121 Alessandria AL, Italy",Alessandria,+39 351 923 1279,http://www.lucagastaldi.it/,,"https://www.google.com/maps/place/Tassistro+Adriana/@44.9132799,8.6075187,15z/data=!4m10!1m2!2m1!1samministrazione+condominiale+Alessandria!3m6!1s0x47877414102609cd:0x4c41b24b2ac662e3!8m2!3d44.9132799!4d8.6255431!15sCihhbW1pbmlzdHJhemlvbmUgY29uZG9taW5pYWxlIEFsZXNzYW5kcmlhWioiKGFtbWluaXN0cmF6aW9uZSBjb25kb21pbmlhbGUgYWxlc3NhbmRyaWGSARZwcm9wZXJ0eV9hZG1pbmlzdHJhdG9ymgEjQ2haRFNVaE5NRzluUzBWSlEwRm5TVVEyTFdGWU5XWkJFQUWqAYkBCgkvbS8wMjB5czUKCS9tLzAyYmJfNBABKiAiHGFtbWluaXN0cmF6aW9uZSBjb25kb21pbmlhbGUoBzIfEAEiG_CGJbbSBoKsZ5SBkdfopiNFgk9REGmQX-VzVjIsEAIiKGFtbWluaXN0cmF6aW9uZSBjb25kb21pbmlhbGUgYWxlc3NhbmRyaWHgAQD6AQQIABAc!16s%2Fg%2F1w3w1yjl?hl=en&entry=ttu&g_ep=EgoyMDI1MDgxMy4wIKXMDSoASAFQAw%3D%3D"
Tassistro Adriana,"Via Giorgio Solero, 18, 15121 Alessandria AL, Italy",Alessandria,+39 0131 266415,,,"https://www.google.com/maps/place/Studio+Tecnico+Boccaccio/@44.9133773,8.5931103,15z/data=!4m10!1m2!2m1!1samministrazione+condominiale+Alessandria!3m6!1s0x4787743a26b03aa3:0xd83e46eff24ecc04!8m2!3d44.9133773!4d8.6111347!15sCihhbW1pbmlzdHJhemlvbmUgY29uZG9taW5pYWxlIEFsZXNzYW5kcmlhkgEWcHJvcGVydHlfYWRtaW5pc3RyYXRvcqoBiQEKCS9tLzAyMHlzNQoJL20vMDJiYl80EAEqICIcYW1taW5pc3RyYXppb25lIGNvbmRvbWluaWFsZSgHMh8QASIb8IYlttIGgqxnlIGR1-imI0WCT1EQaZBf5XNWMiwQAiIoYW1taW5pc3RyYXppb25lIGNvbmRvbWluaWFsZSBhbGVzc2FuZHJpYeABAA!16s%2Fg%2F1tjgz7h2?hl=en&entry=ttu&g_ep=EgoyMDI1MDgxMy4wIKXMDSoASAFQAw%3D%3D"
Studio Tecnico Boccaccio,"Via Piacenza, 66, 15121 Alessandria AL, Italy",Alessandria,+39 345 181 6476,,,"https://www.google.com/maps/place/Sanelli+Gianfranco/@44.9133773,8.5931103,15z/data=!4m10!1m2!2m1!1samministrazione+condominiale+Alessandria!3m6!1s0x4787743a1c92cd7d:0x7c44b1c9b21e2057!8m2!3d44.9133984!4d8.6102245!15sCihhbW1pbmlzdHJhemlvbmUgY29uZG9taW5pYWxlIEFsZXNzYW5kcmlhkgEWcHJvcGVydHlfYWRtaW5pc3RyYXRvcqoBiQEKCS9tLzAyMHlzNQoJL20vMDJiYl80EAEqICIcYW1taW5pc3RyYXppb25lIGNvbmRvbWluaWFsZSgHMh8QASIb8IYlttIGgqxnlIGR1-imI0WCT1EQaZBf5XNWMiwQAiIoYW1taW5pc3RyYXppb25lIGNvbmRvbWluaWFsZSBhbGVzc2FuZHJpYeABAA!16s%2Fg%2F1tslhlwc?hl=en&entry=ttu&g_ep=EgoyMDI1MDgxMy4wIKXMDSoASAFQAw%3D%3D"
Sanelli Gianfranco,"Piazza Giosuè Carducci, 14, 15121 Alessandria AL, Italy",Alessandria,+39 0131 443491,,,"https://www.google.com/maps/place/Al.Gest+Di+Barni+T.+%26+C.+Sas/@44.9111793,8.6032635,15z/data=!4m10!1m2!2m1!1samministrazione+condominiale+Alessandria!3m6!1s0x478774163681328f:0xf01c0fbf299d9ffb!8m2!3d44.9111793!4d8.6212879!15sCihhbW1pbmlzdHJhemlvbmUgY29uZG9taW5pYWxlIEFsZXNzYW5kcmlhkgEWcHJvcGVydHlfYWRtaW5pc3RyYXRvcqoBiQEKCS9tLzAyMHlzNQoJL20vMDJiYl80EAEqICIcYW1taW5pc3RyYXppb25lIGNvbmRvbWluaWFsZSgHMh8QASIb8IYlttIGgqxnlIGR1-imI0WCT1EQaZBf5XNWMiwQAiIoYW1taW5pc3RyYXppb25lIGNvbmRvbWluaWFsZSBhbGVzc2FuZHJpYeABAA!16s%2Fg%2F1tdd44dr?hl=en&entry=ttu&g_ep=EgoyMDI1MDgxMy4wIKXMDSoASAFQAw%3D%3D"
Al.Gest Di Barni T. & C. Sas,"C.so Alfonso Lamarmora, 65, 15121 Alessandria AL, Italy",Alessandria,+39 0131 265313,,,"https://www.google.com/maps/place/Burgio+Geom.+Oscar/@44.9111793,8.6032635,15z/data=!4m10!1m2!2m1!1samministrazione+condominiale+Alessandria!3m6!1s0x47877423b4742887:0x2363ed9e62f91c7d!8m2!3d44.906661!4d8.6156801!15sCihhbW1pbmlzdHJhemlvbmUgY29uZG9taW5pYWxlIEFsZXNzYW5kcmlhWioiKGFtbWluaXN0cmF6aW9uZSBjb25kb21pbmlhbGUgYWxlc3NhbmRyaWGSARtwcm9wZXJ0eV9tYW5hZ2VtZW50X2NvbXBhbnmaASNDaFpEU1VoTk1HOW5TMFZKUTBGblNVUjRiMWxxZVVWQkVBRaoBiQEKCS9tLzAyMHlzNQoJL20vMDJiYl80EAEqICIcYW1taW5pc3RyYXppb25lIGNvbmRvbWluaWFsZSgHMh8QASIb8IYlttIGgqxnlIGR1-imI0WCT1EQaZBf5XNWMiwQAiIoYW1taW5pc3RyYXppb25lIGNvbmRvbWluaWFsZSBhbGVzc2FuZHJpYeABAPoBBAgAEDA!16s%2Fg%2F12j5swjcl?hl=en&entry=ttu&g_ep=EgoyMDI1MDgxMy4wIKXMDSoASAFQAw%3D%3D"
Burgio Geom. Oscar,"Corso XX Settembre, 7, 15121 Alessandria AL, Italy",Alessandria,+39 0131 481595,,,"https://www.google.com/maps/place/Grossi+Sergio/@44.9111793,8.6032635,15z/data=!4m10!1m2!2m1!1samministrazione+condominiale+Alessandria!3m6!1s0x4787743d3b2755d9:0x9b26e39fe1fd56d7!8m2!3d44.909253!4d8.6171142!15sCihhbW1pbmlzdHJhemlvbmUgY29uZG9taW5pYWxlIEFsZXNzYW5kcmlhkgEWcHJvcGVydHlfYWRtaW5pc3RyYXRvcqoBiQEKCS9tLzAyMHlzNQoJL20vMDJiYl80EAEqICIcYW1taW5pc3RyYXppb25lIGNvbmRvbWluaWFsZSgHMh8QASIb8IYlttIGgqxnlIGR1-imI0WCT1EQaZBf5XNWMiwQAiIoYW1taW5pc3RyYXppb25lIGNvbmRvbWluaWFsZSBhbGVzc2FuZHJpYeABAA!16s%2Fg%2F1tgcwypm?hl=en&entry=ttu&g_ep=EgoyMDI1MDgxMy4wIKXMDSoASAFQAw%3D%3D"
Grossi Sergio,"Corso Cento Cannoni, 16, 15121 Alessandria AL, Italy",Alessandria,+39 0131 236039,,,"https://www.google.com/maps/place/Studio+Sturla+di+Sturla+Luca/@44.902395,8.5853705,15z/data=!4m10!1m2!2m1!1samministrazione+condominiale+Alessandria!3m6!1s0x4787742855b1d381:0x3e900717743bde24!8m2!3d44.902395!4d8.6033949!15sCihhbW1pbmlzdHJhemlvbmUgY29uZG9taW5pYWxlIEFsZXNzYW5kcmlhWioiKGFtbWluaXN0cmF6aW9uZSBjb25kb21pbmlhbGUgYWxlc3NhbmRyaWGSARZwcm9wZXJ0eV9hZG1pbmlzdHJhdG9yqgGJAQoJL20vMDIweXM1CgkvbS8wMmJiXzQQASogIhxhbW1pbmlzdHJhemlvbmUgY29uZG9taW5pYWxlKAcyHxABIhvwhiW20gaCrGeUgZHX6KYjRYJPURBpkF_lc1YyLBACIihhbW1pbmlzdHJhemlvbmUgY29uZG9taW5pYWxlIGFsZXNzYW5kcmlh4AEA!16s%2Fg%2F11g7nrp4ff?hl=en&entry=ttu&g_ep=EgoyMDI1MDgxMy4wIKXMDSoASAFQAw%3D%3D"
